{
"type": "FeatureCollection",
"name": "BACHES",
"crs": { "type": "name", "properties": { "name": "urn:ogc:def:crs:OGC:1.3:CRS84" } },
"features": [
{ "type": "Feature", "properties": { "fid": 1, "ele": null, "time": "2026-06-11T17:23:53Z", "magvar": null, "geoidheight": null, "name": "Dañado", "cmt": null, "desc": null, "src": null, "link1_href": null, "link1_text": null, "link1_type": null, "link2_href": null, "link2_text": null, "link2_type": null, "sym": null, "type": null, "fix": null, "sat": null, "hdop": null, "vdop": null, "pdop": null, "ageofdgpsdata": null, "dgpsid": null, "layer": "Adoquines_y_piedra — waypoints", "path": "C:\\Users\\AMSSS-INNOVACION\\OneDrive\\Imágenes\\Escritorio\\sss\\Levantamiento de calles SSS\\Panchimalco\\calles 11-6-2026\\11-06-2026\\Adoquines_y_piedra.gpx|layername=waypoints" }, "geometry": { "type": "Point", "coordinates": [ -89.18084465, 13.61265423, 0.0 ] } },
{ "type": "Feature", "properties": { "fid": 2, "ele": null, "time": "2026-06-11T22:14:05Z", "magvar": null, "geoidheight": null, "name": "Bache", "cmt": null, "desc": null, "src": null, "link1_href": null, "link1_text": null, "link1_type": null, "link2_href": null, "link2_text": null, "link2_type": null, "sym": null, "type": null, "fix": null, "sat": null, "hdop": null, "vdop": null, "pdop": null, "ageofdgpsdata": null, "dgpsid": null, "layer": "Adoquines_y_piedra(1) — waypoints", "path": "C:\\Users\\AMSSS-INNOVACION\\OneDrive\\Imágenes\\Escritorio\\sss\\Levantamiento de calles SSS\\Panchimalco\\calles 11-6-2026\\11-06-2026\\Adoquines_y_piedra(1).gpx|layername=waypoints" }, "geometry": { "type": "Point", "coordinates": [ -89.19738784, 13.61790081, 0.0 ] } },
{ "type": "Feature", "properties": { "fid": 3, "ele": 581.5, "time": "2026-06-11T16:33:30Z", "magvar": null, "geoidheight": null, "name": "Baches", "cmt": null, "desc": "Velocidad: 3.09 mph\nElevación: 1899 ft\nTiempo desde inicio: 00:01:40\nDistancia desde inicio: 275 ft", "src": null, "link1_href": null, "link1_text": null, "link1_type": null, "link2_href": null, "link2_text": null, "link2_type": null, "sym": null, "type": null, "fix": null, "sat": null, "hdop": null, "vdop": null, "pdop": null, "ageofdgpsdata": null, "dgpsid": null, "layer": "Asfalto — waypoints", "path": "C:\\Users\\AMSSS-INNOVACION\\OneDrive\\Imágenes\\Escritorio\\sss\\Levantamiento de calles SSS\\Panchimalco\\calles 11-6-2026\\11-06-2026\\Asfalto.gpx|layername=waypoints" }, "geometry": { "type": "Point", "coordinates": [ -89.18154148, 13.61062254, 581.5 ] } },
{ "type": "Feature", "properties": { "fid": 4, "ele": null, "time": "2026-06-11T16:36:04Z", "magvar": null, "geoidheight": null, "name": "Entrada dañada", "cmt": null, "desc": null, "src": null, "link1_href": null, "link1_text": null, "link1_type": null, "link2_href": null, "link2_text": null, "link2_type": null, "sym": null, "type": null, "fix": null, "sat": null, "hdop": null, "vdop": null, "pdop": null, "ageofdgpsdata": null, "dgpsid": null, "layer": "Asfalto — waypoints", "path": "C:\\Users\\AMSSS-INNOVACION\\OneDrive\\Imágenes\\Escritorio\\sss\\Levantamiento de calles SSS\\Panchimalco\\calles 11-6-2026\\11-06-2026\\Asfalto.gpx|layername=waypoints" }, "geometry": { "type": "Point", "coordinates": [ -89.18190043, 13.61050747, 0.0 ] } },
{ "type": "Feature", "properties": { "fid": 5, "ele": 961.2, "time": "2026-06-11T21:26:47Z", "magvar": null, "geoidheight": null, "name": "Baches", "cmt": null, "desc": "Velocidad: 5.77 mph\nElevación: 3154 ft\nTiempo desde inicio: 00:00:00\nDistancia desde inicio: 0 ft", "src": null, "link1_href": null, "link1_text": null, "link1_type": null, "link2_href": null, "link2_text": null, "link2_type": null, "sym": null, "type": null, "fix": null, "sat": null, "hdop": null, "vdop": null, "pdop": null, "ageofdgpsdata": null, "dgpsid": null, "layer": "Asfalto(1) — waypoints", "path": "C:\\Users\\AMSSS-INNOVACION\\OneDrive\\Imágenes\\Escritorio\\sss\\Levantamiento de calles SSS\\Panchimalco\\calles 11-6-2026\\11-06-2026\\Asfalto(1).gpx|layername=waypoints" }, "geometry": { "type": "Point", "coordinates": [ -89.20273236, 13.6158695, 961.2 ] } },
{ "type": "Feature", "properties": { "fid": 6, "ele": 961.37, "time": "2026-06-11T21:27:01Z", "magvar": null, "geoidheight": null, "name": "Baches ", "cmt": null, "desc": "Velocidad: 12.57 mph\nElevación: 3145 ft\nTiempo desde inicio: 00:00:14\nDistancia desde inicio: 178 ft", "src": null, "link1_href": null, "link1_text": null, "link1_type": null, "link2_href": null, "link2_text": null, "link2_type": null, "sym": null, "type": null, "fix": null, "sat": null, "hdop": null, "vdop": null, "pdop": null, "ageofdgpsdata": null, "dgpsid": null, "layer": "Asfalto(1) — waypoints", "path": "C:\\Users\\AMSSS-INNOVACION\\OneDrive\\Imágenes\\Escritorio\\sss\\Levantamiento de calles SSS\\Panchimalco\\calles 11-6-2026\\11-06-2026\\Asfalto(1).gpx|layername=waypoints" }, "geometry": { "type": "Point", "coordinates": [ -89.20307544, 13.61552251, 961.37 ] } },
{ "type": "Feature", "properties": { "fid": 7, "ele": null, "time": "2026-06-11T21:27:21Z", "magvar": null, "geoidheight": null, "name": "Baches", "cmt": null, "desc": null, "src": null, "link1_href": null, "link1_text": null, "link1_type": null, "link2_href": null, "link2_text": null, "link2_type": null, "sym": null, "type": null, "fix": null, "sat": null, "hdop": null, "vdop": null, "pdop": null, "ageofdgpsdata": null, "dgpsid": null, "layer": "Asfalto(1) — waypoints", "path": "C:\\Users\\AMSSS-INNOVACION\\OneDrive\\Imágenes\\Escritorio\\sss\\Levantamiento de calles SSS\\Panchimalco\\calles 11-6-2026\\11-06-2026\\Asfalto(1).gpx|layername=waypoints" }, "geometry": { "type": "Point", "coordinates": [ -89.20357671, 13.61500561, 0.0 ] } },
{ "type": "Feature", "properties": { "fid": 8, "ele": null, "time": "2026-06-11T22:11:17Z", "magvar": null, "geoidheight": null, "name": "Bache", "cmt": null, "desc": null, "src": null, "link1_href": null, "link1_text": null, "link1_type": null, "link2_href": null, "link2_text": null, "link2_type": null, "sym": null, "type": null, "fix": null, "sat": null, "hdop": null, "vdop": null, "pdop": null, "ageofdgpsdata": null, "dgpsid": null, "layer": "Asfalto(2) — waypoints", "path": "C:\\Users\\AMSSS-INNOVACION\\OneDrive\\Imágenes\\Escritorio\\sss\\Levantamiento de calles SSS\\Panchimalco\\calles 11-6-2026\\11-06-2026\\Asfalto(2).gpx|layername=waypoints" }, "geometry": { "type": "Point", "coordinates": [ -89.20257758, 13.61601119, 0.0 ] } },
{ "type": "Feature", "properties": { "fid": 9, "ele": null, "time": "2026-06-11T22:11:52Z", "magvar": null, "geoidheight": null, "name": "Asfalto ", "cmt": null, "desc": null, "src": null, "link1_href": null, "link1_text": null, "link1_type": null, "link2_href": null, "link2_text": null, "link2_type": null, "sym": null, "type": null, "fix": null, "sat": null, "hdop": null, "vdop": null, "pdop": null, "ageofdgpsdata": null, "dgpsid": null, "layer": "Asfalto(2) — waypoints", "path": "C:\\Users\\AMSSS-INNOVACION\\OneDrive\\Imágenes\\Escritorio\\sss\\Levantamiento de calles SSS\\Panchimalco\\calles 11-6-2026\\11-06-2026\\Asfalto(2).gpx|layername=waypoints" }, "geometry": { "type": "Point", "coordinates": [ -89.20198884, 13.61549341, 0.0 ] } },
{ "type": "Feature", "properties": { "fid": 10, "ele": null, "time": "2026-06-11T23:11:12Z", "magvar": null, "geoidheight": null, "name": "Bacheo ", "cmt": null, "desc": null, "src": null, "link1_href": null, "link1_text": null, "link1_type": null, "link2_href": null, "link2_text": null, "link2_type": null, "sym": null, "type": null, "fix": null, "sat": null, "hdop": null, "vdop": null, "pdop": null, "ageofdgpsdata": null, "dgpsid": null, "layer": "Asfalto(4) — waypoints", "path": "C:\\Users\\AMSSS-INNOVACION\\OneDrive\\Imágenes\\Escritorio\\sss\\Levantamiento de calles SSS\\Panchimalco\\calles 11-6-2026\\11-06-2026\\Asfalto(4).gpx|layername=waypoints" }, "geometry": { "type": "Point", "coordinates": [ -89.18276142, 13.60398983, 0.0 ] } },
{ "type": "Feature", "properties": { "fid": 11, "ele": null, "time": "2026-06-11T16:46:32Z", "magvar": null, "geoidheight": null, "name": "Final de tramo sin reparar ", "cmt": null, "desc": null, "src": null, "link1_href": null, "link1_text": null, "link1_type": null, "link2_href": null, "link2_text": null, "link2_type": null, "sym": null, "type": null, "fix": null, "sat": null, "hdop": null, "vdop": null, "pdop": null, "ageofdgpsdata": null, "dgpsid": null, "layer": "Entrada_de_parque_acuático — waypoints", "path": "C:\\Users\\AMSSS-INNOVACION\\OneDrive\\Imágenes\\Escritorio\\sss\\Levantamiento de calles SSS\\Panchimalco\\calles 11-6-2026\\11-06-2026\\Entrada_de_parque_acuático.gpx|layername=waypoints" }, "geometry": { "type": "Point", "coordinates": [ -89.18196179, 13.60981338, 0.0 ] } },
{ "type": "Feature", "properties": { "fid": 12, "ele": 594.34, "time": "2026-06-11T16:22:57Z", "magvar": null, "geoidheight": null, "name": "Bache", "cmt": null, "desc": "Velocidad: 1.68 mph\nElevación: 1950 ft\nTiempo desde inicio: 00:01:41\nDistancia desde inicio: 34 ft", "src": null, "link1_href": null, "link1_text": null, "link1_type": null, "link2_href": null, "link2_text": null, "link2_type": null, "sym": null, "type": null, "fix": null, "sat": null, "hdop": null, "vdop": null, "pdop": null, "ageofdgpsdata": null, "dgpsid": null, "layer": "Pavimento — waypoints", "path": "C:\\Users\\AMSSS-INNOVACION\\OneDrive\\Imágenes\\Escritorio\\sss\\Levantamiento de calles SSS\\Panchimalco\\calles 11-6-2026\\11-06-2026\\Pavimento.gpx|layername=waypoints" }, "geometry": { "type": "Point", "coordinates": [ -89.18062115, 13.61165815, 594.34 ] } },
{ "type": "Feature", "properties": { "fid": 13, "ele": 586.74, "time": "2026-06-11T16:23:36Z", "magvar": null, "geoidheight": null, "name": "Bache", "cmt": null, "desc": "Velocidad: 2.1 mph\nElevación: 1925 ft\nTiempo desde inicio: 00:02:20\nDistancia desde inicio: 68 ft", "src": null, "link1_href": null, "link1_text": null, "link1_type": null, "link2_href": null, "link2_text": null, "link2_type": null, "sym": null, "type": null, "fix": null, "sat": null, "hdop": null, "vdop": null, "pdop": null, "ageofdgpsdata": null, "dgpsid": null, "layer": "Pavimento — waypoints", "path": "C:\\Users\\AMSSS-INNOVACION\\OneDrive\\Imágenes\\Escritorio\\sss\\Levantamiento de calles SSS\\Panchimalco\\calles 11-6-2026\\11-06-2026\\Pavimento.gpx|layername=waypoints" }, "geometry": { "type": "Point", "coordinates": [ -89.18068708, 13.61158945, 586.74 ] } },
{ "type": "Feature", "properties": { "fid": 14, "ele": null, "time": "2026-06-11T16:24:43Z", "magvar": null, "geoidheight": null, "name": "2 baches", "cmt": null, "desc": null, "src": null, "link1_href": null, "link1_text": null, "link1_type": null, "link2_href": null, "link2_text": null, "link2_type": null, "sym": null, "type": null, "fix": null, "sat": null, "hdop": null, "vdop": null, "pdop": null, "ageofdgpsdata": null, "dgpsid": null, "layer": "Pavimento — waypoints", "path": "C:\\Users\\AMSSS-INNOVACION\\OneDrive\\Imágenes\\Escritorio\\sss\\Levantamiento de calles SSS\\Panchimalco\\calles 11-6-2026\\11-06-2026\\Pavimento.gpx|layername=waypoints" }, "geometry": { "type": "Point", "coordinates": [ -89.18093015, 13.61141759, 0.0 ] } },
{ "type": "Feature", "properties": { "fid": 15, "ele": 616.04, "time": "2026-06-11T18:35:59Z", "magvar": null, "geoidheight": null, "name": "Fin cordón cuneta", "cmt": null, "desc": "Velocidad: 0.72 mph\nElevación: 2027 ft\nTiempo desde inicio: 00:02:32\nDistancia desde inicio: 550 ft", "src": null, "link1_href": null, "link1_text": null, "link1_type": null, "link2_href": null, "link2_text": null, "link2_type": null, "sym": null, "type": null, "fix": null, "sat": null, "hdop": null, "vdop": null, "pdop": null, "ageofdgpsdata": null, "dgpsid": null, "layer": "Tierra — waypoints", "path": "C:\\Users\\AMSSS-INNOVACION\\OneDrive\\Imágenes\\Escritorio\\sss\\Levantamiento de calles SSS\\Panchimalco\\calles 11-6-2026\\11-06-2026\\Tierra.gpx|layername=waypoints" }, "geometry": { "type": "Point", "coordinates": [ -89.17589713, 13.61381713, 616.04 ] } }
]
}
