{
"type": "FeatureCollection",
"name": "CALLES DE PANCHIMALCO",
"crs": { "type": "name", "properties": { "name": "urn:ogc:def:crs:OGC:1.3:CRS84" } },
"features": [
{ "type": "Feature", "properties": { "fid": 1, "Tipo": "Adoquines y piedra", "src": "Registrado con Geo Tracker para Android de Ilya Bogdanovich", "geotracker_meta": "        <geotracker:length>117.75</geotracker:length>        <geotracker:duration>119083</geotracker:duration>        <geotracker:creationtime>2026-06-11T17:07:16Z</geotracker:creationtime>        <geotracker:activity>0</geotracker:activity>      ", "layer": "Adoquines_y_piedra — tracks", "path": "C:\\Users\\AMSSS-INNOVACION\\OneDrive\\Imágenes\\Escritorio\\sss\\Levantamiento de calles SSS\\Panchimalco\\calles 11-6-2026\\11-06-2026\\Adoquines_y_piedra.gpx|layername=tracks", "Nombre": null, "img": null }, "geometry": { "type": "MultiLineString", "coordinates": [ [ [ -89.180515519670095, 13.611779674125511, 589.98 ], [ -89.18046269, 13.61190883, 592.99 ], [ -89.18044565, 13.61200299, 592.93 ], [ -89.18045575, 13.61210064, 591.95 ], [ -89.18050623, 13.61218489, 593.97 ], [ -89.180578201538495, 13.612245501384585, 594.3 ], [ -89.18066233, 13.61230259, 594.63 ], [ -89.18074185, 13.61235321, 595.73 ], [ -89.18081301, 13.61242541, 595.81 ], [ -89.180851982222052, 13.612512423261871, 596.57 ], [ -89.180851982222052, 13.612633595505951, 598.6 ], [ -89.180802446398999, 13.612684655508174, 602.19 ] ] ] } },
{ "type": "Feature", "properties": { "fid": 2, "Tipo": "Adoquines y piedra", "src": "Registrado con Geo Tracker para Android de Ilya Bogdanovich", "geotracker_meta": "        <geotracker:length>169.4</geotracker:length>        <geotracker:duration>98072</geotracker:duration>        <geotracker:creationtime>2026-06-11T22:13:55Z</geotracker:creationtime>        <geotracker:activity>0</geotracker:activity>      ", "layer": "Adoquines_y_piedra(1) — tracks", "path": "C:\\Users\\AMSSS-INNOVACION\\OneDrive\\Imágenes\\Escritorio\\sss\\Levantamiento de calles SSS\\Panchimalco\\calles 11-6-2026\\11-06-2026\\Adoquines_y_piedra(1).gpx|layername=tracks", "Nombre": null, "img": null }, "geometry": { "type": "MultiLineString", "coordinates": [ [ [ -89.197515880727281, 13.617996038873706, 1011.97 ], [ -89.19732199, 13.617983, 1014.51 ], [ -89.19720688, 13.61798433, 1018.65 ], [ -89.19711247, 13.61800284, 1022.04 ], [ -89.19701722, 13.61802989, 1024.6 ], [ -89.19690022, 13.6180396, 1029.22 ], [ -89.19679841, 13.61804824, 1029.4 ], [ -89.1966853, 13.61808704, 1027.97 ], [ -89.19659205, 13.61813446, 1026.35 ], [ -89.19650433, 13.61817412, 1025.869999999999891 ], [ -89.19641875, 13.61821268, 1024.96 ], [ -89.19633412, 13.61824921, 1025.26 ], [ -89.19621963, 13.61827764, 1028.869999999999891 ], [ -89.19610771, 13.61831219, 1032.81 ], [ -89.19602279, 13.61835518, 1034.31 ], [ -89.19595462, 13.61841668, 1035.48 ] ] ] } },
{ "type": "Feature", "properties": { "fid": 3, "Tipo": "Asfalto", "src": "Registrado con Geo Tracker para Android de Ilya Bogdanovich", "geotracker_meta": "        <geotracker:length>125.24</geotracker:length>        <geotracker:duration>252335</geotracker:duration>        <geotracker:creationtime>2026-06-11T16:31:48Z</geotracker:creationtime>        <geotracker:activity>0</geotracker:activity>      ", "layer": "Asfalto — tracks", "path": "C:\\Users\\AMSSS-INNOVACION\\OneDrive\\Imágenes\\Escritorio\\sss\\Levantamiento de calles SSS\\Panchimalco\\calles 11-6-2026\\11-06-2026\\Asfalto.gpx|layername=tracks", "Nombre": null, "img": null }, "geometry": { "type": "MultiLineString", "coordinates": [ [ [ -89.181182729102105, 13.611146758724812, 581.98 ], [ -89.18120113, 13.61114377, 583.26 ], [ -89.18129373, 13.61112932, 584.64 ], [ -89.18136411, 13.6110685, 585.79 ], [ -89.18139492, 13.61098212, 583.17 ], [ -89.18142587, 13.61088849, 580.71 ], [ -89.18145643, 13.61080201, 579.27 ], [ -89.18149343, 13.61071016, 578.56 ], [ -89.18154148, 13.61062254, 578.77 ], [ -89.181578253596925, 13.610546232131515, 577.65 ], [ -89.181727623155666, 13.610509651831416, 578.26 ], [ -89.181883089431096, 13.610512700189759, 574.69 ] ] ] } },
{ "type": "Feature", "properties": { "fid": 4, "Tipo": "Asfalto", "src": "Registrado con Geo Tracker para Android de Ilya Bogdanovich", "geotracker_meta": "        <geotracker:length>249.12</geotracker:length>        <geotracker:duration>73037</geotracker:duration>        <geotracker:creationtime>2026-06-11T21:26:46Z</geotracker:creationtime>        <geotracker:activity>0</geotracker:activity>      ", "layer": "Asfalto(1) — tracks", "path": "C:\\Users\\AMSSS-INNOVACION\\OneDrive\\Imágenes\\Escritorio\\sss\\Levantamiento de calles SSS\\Panchimalco\\calles 11-6-2026\\11-06-2026\\Asfalto(1).gpx|layername=tracks", "Nombre": null, "img": null }, "geometry": { "type": "MultiLineString", "coordinates": [ [ [ -89.202769488175988, 13.61584104004856, 961.2 ], [ -89.20278673, 13.61579278, 960.74 ], [ -89.20284619, 13.61571618, 960.96 ], [ -89.202916952510776, 13.615660805861609, 962.91 ], [ -89.202993161469323, 13.615589169440581, 961.02 ], [ -89.20307544, 13.61552251, 958.6 ], [ -89.2031711, 13.61547234, 957.38 ], [ -89.20326437, 13.61539296, 957.86 ], [ -89.20335767, 13.61530237, 957.12 ], [ -89.20340654, 13.61520924, 953.14 ], [ -89.20346649, 13.61512443, 953.97 ], [ -89.203531958806238, 13.615038178670332, 953.14 ], [ -89.203583780898057, 13.614963493890961, 951.17 ], [ -89.203651225826363, 13.614870900006334, 949.42 ], [ -89.20372133806822, 13.61478859433111, 949.8 ], [ -89.20377897, 13.61469858, 946.78 ], [ -89.20383995, 13.6146121, 946.96 ], [ -89.20391773, 13.61451509, 944.81 ], [ -89.20399463, 13.61442912, 944.63 ], [ -89.204098191368203, 13.614326768042348, 943.64 ], [ -89.204198787193477, 13.614297808638103, 942.3 ], [ -89.204343584214698, 13.61429323610059, 941.59 ] ] ] } },
{ "type": "Feature", "properties": { "fid": 5, "Tipo": "Asfalto", "src": "Registrado con Geo Tracker para Android de Ilya Bogdanovich", "geotracker_meta": "        <geotracker:length>194.75</geotracker:length>        <geotracker:duration>73055</geotracker:duration>        <geotracker:creationtime>2026-06-11T22:11:09Z</geotracker:creationtime>        <geotracker:activity>0</geotracker:activity>      ", "layer": "Asfalto(2) — tracks", "path": "C:\\Users\\AMSSS-INNOVACION\\OneDrive\\Imágenes\\Escritorio\\sss\\Levantamiento de calles SSS\\Panchimalco\\calles 11-6-2026\\11-06-2026\\Asfalto(2).gpx|layername=tracks", "Nombre": null, "img": null }, "geometry": { "type": "MultiLineString", "coordinates": [ [ [ -89.202769297653603, 13.615840849526162, 956.89 ], [ -89.20269233, 13.61590357, 956.39 ], [ -89.202616879736524, 13.615968880576512, 957.28 ], [ -89.202514759732068, 13.615979549830707, 957.61 ], [ -89.202415688085978, 13.61592925191807, 957.33 ], [ -89.202290705393963, 13.61587285728875, 958.79 ], [ -89.202246504198015, 13.615776834000988, 957.91 ], [ -89.202174867776989, 13.615674713996544, 957.68 ], [ -89.2021046, 13.61558943, 957.14 ], [ -89.20200849, 13.61553152, 956.64 ], [ -89.2019239, 13.61547738, 956.32 ], [ -89.201892132540792, 13.615387787267634, 956.11 ], [ -89.201861648957376, 13.615291763979872, 957.88 ], [ -89.201811351044739, 13.615172878004548, 958.37 ], [ -89.201777819102986, 13.615095144866837, 956.9 ], [ -89.201725997011181, 13.615002169937418, 957.67 ], [ -89.201614731931713, 13.614921388441365, 957.47 ], [ -89.20153509357003, 13.614883665006888, 957.6 ] ] ] } },
{ "type": "Feature", "properties": { "fid": 6, "Tipo": "Asfalto", "src": "Registrado con Geo Tracker para Android de Ilya Bogdanovich", "geotracker_meta": "        <geotracker:length>3720.29</geotracker:length>        <geotracker:duration>504334</geotracker:duration>        <geotracker:creationtime>2026-06-11T22:16:11Z</geotracker:creationtime>        <geotracker:activity>0</geotracker:activity>      ", "layer": "Asfalto(3) — tracks", "path": "C:\\Users\\AMSSS-INNOVACION\\OneDrive\\Imágenes\\Escritorio\\sss\\Levantamiento de calles SSS\\Panchimalco\\calles 11-6-2026\\11-06-2026\\Asfalto(3).gpx|layername=tracks", "Nombre": null, "img": null }, "geometry": { "type": "MultiLineString", "coordinates": [ [ [ -89.195212798369454, 13.618869393538573, 1038.35 ], [ -89.19492719, 13.61893767, 1040.130000000000109 ], [ -89.19483622, 13.61898524, 1040.47 ], [ -89.19473517, 13.61904827, 1041.08 ], [ -89.19462884, 13.61911577, 1042.21 ], [ -89.19454417, 13.61916491, 1041.4 ], [ -89.19444142, 13.61922551, 1041.36 ], [ -89.19432679, 13.619253, 1042.25 ], [ -89.19421148, 13.61931604, 1039.5 ], [ -89.19406422, 13.61940743, 1038.1 ], [ -89.19399701, 13.61947146, 1037.94 ], [ -89.19393761, 13.61959124, 1036.57 ], [ -89.1939061, 13.61973916, 1037.58 ], [ -89.19394046, 13.61990036, 1037.15 ], [ -89.19399168, 13.61998088, 1037.95 ], [ -89.19404443, 13.62010176, 1036.9 ], [ -89.19397252, 13.62023402, 1035.66 ], [ -89.19392839, 13.62031457, 1036.54 ], [ -89.19384721, 13.62040713, 1036.78 ], [ -89.19379057, 13.62048147, 1037.77 ], [ -89.19367784, 13.62059909, 1037.8900000000001 ], [ -89.19356233, 13.62071909, 1039.49 ], [ -89.1934505, 13.62081451, 1040.16 ], [ -89.19333373, 13.62091517, 1039.86 ], [ -89.19322661, 13.621018, 1039.85 ], [ -89.19310043, 13.62111109, 1040.23 ], [ -89.19297655, 13.62116907, 1043.45 ], [ -89.19285518, 13.62124075, 1044.6 ], [ -89.19273803, 13.62133126, 1044.98 ], [ -89.19262254, 13.62144024, 1047.16 ], [ -89.19252145, 13.62158023, 1048.79 ], [ -89.19246795, 13.62172806, 1050.02 ], [ -89.19242829, 13.62184365, 1054.23 ], [ -89.19239666, 13.62193774, 1056.85 ], [ -89.19239979, 13.62205929, 1058.61 ], [ -89.19246052, 13.62217038, 1058.95 ], [ -89.19255499, 13.62225678, 1059.01 ], [ -89.19263045, 13.62234346, 1060.22 ], [ -89.19266539, 13.62244032, 1061.94 ], [ -89.19263581, 13.62254804, 1064.66 ], [ -89.19256638, 13.62263575, 1066.26 ], [ -89.19247476, 13.62272181, 1066.93 ], [ -89.19239061, 13.62276244, 1066.22 ], [ -89.19230757, 13.62284922, 1066.97 ], [ -89.1922304, 13.62298027, 1069.58 ], [ -89.19217372, 13.623104, 1070.42 ], [ -89.19215435, 13.62323001, 1072.17 ], [ -89.19219887, 13.62334088, 1072.78 ], [ -89.19226574, 13.62343773, 1074.41 ], [ -89.19232186, 13.62355488, 1073.93 ], [ -89.19238326, 13.62370603, 1074.47 ], [ -89.19244716, 13.62382187, 1074.48 ], [ -89.19246105, 13.62394228, 1074.98 ], [ -89.19244103, 13.62405208, 1074.8 ], [ -89.19231791, 13.62416708, 1073.77 ], [ -89.19219327, 13.62424516, 1073.72 ], [ -89.19207422, 13.62436266, 1074.31 ], [ -89.19203993, 13.62445466, 1074.11 ], [ -89.19201944, 13.62454299, 1074.56 ], [ -89.19197701, 13.62470163, 1075.3900000000001 ], [ -89.19192407, 13.62483799, 1077.619999999999891 ], [ -89.191836, 13.6249131, 1076.630000000000109 ], [ -89.19173109, 13.62493817, 1076.86 ], [ -89.19161914, 13.62493095, 1076.66 ], [ -89.19150988, 13.62489622, 1075.82 ], [ -89.19139405, 13.62482184, 1073.85 ], [ -89.19128268, 13.62473769, 1072.369999999999891 ], [ -89.19117192, 13.6246453, 1073.06 ], [ -89.1910753, 13.62456302, 1071.52 ], [ -89.19098576, 13.62453437, 1071.9 ], [ -89.19088098, 13.6245394, 1072.8 ], [ -89.19077294, 13.62456418, 1072.04 ], [ -89.19068482, 13.62460061, 1072.119999999999891 ], [ -89.19058074, 13.62465545, 1072.31 ], [ -89.19047306, 13.62473196, 1067.96 ], [ -89.19040659, 13.62480164, 1065.92 ], [ -89.19033726, 13.62489668, 1064.630000000000109 ], [ -89.19028195, 13.62498667, 1063.17 ], [ -89.19022536, 13.62506494, 1062.86 ], [ -89.19018571, 13.62514712, 1061.24 ], [ -89.19017024, 13.62524817, 1060.51 ], [ -89.19010537, 13.62533972, 1060.19 ], [ -89.19004726, 13.62542024, 1060.43 ], [ -89.19002351, 13.62551425, 1061.31 ], [ -89.19000139, 13.62560743, 1061.72 ], [ -89.18997946, 13.62571626, 1062.04 ], [ -89.18997345, 13.62583042, 1062.4 ], [ -89.18996271, 13.62592254, 1062.23 ], [ -89.1899444, 13.62602379, 1062.16 ], [ -89.18994087, 13.62613149, 1063.17 ], [ -89.18993045, 13.62623346, 1065.99 ], [ -89.18999087, 13.62635714, 1066.86 ], [ -89.19000299, 13.62647961, 1068.58 ], [ -89.1900276, 13.62661441, 1070.35 ], [ -89.19006633, 13.62673594, 1071.16 ], [ -89.1901265, 13.62685517, 1070.27 ], [ -89.19020481, 13.62698164, 1070.18 ], [ -89.19029538, 13.62710885, 1070.76 ], [ -89.19039487, 13.62723892, 1070.55 ], [ -89.19052411, 13.6274256, 1071.8 ], [ -89.19055859, 13.62754093, 1072.58 ], [ -89.19055347, 13.62763309, 1073.16 ], [ -89.19046852, 13.62773302, 1072.56 ], [ -89.19037553, 13.62777352, 1071.82 ], [ -89.19025854, 13.62780543, 1071.24 ], [ -89.19010231, 13.62785105, 1069.7 ], [ -89.1899257, 13.62791252, 1068.8900000000001 ], [ -89.18974167, 13.62798587, 1069.44 ], [ -89.18965459, 13.62803856, 1069.16 ], [ -89.18956337, 13.62808465, 1069.06 ], [ -89.18947417, 13.6281304, 1069.18 ], [ -89.18938894, 13.62818332, 1068.48 ], [ -89.18923677, 13.62826571, 1067.72 ], [ -89.18914906, 13.62841926, 1067.29 ], [ -89.18907721, 13.62855736, 1069.24 ], [ -89.18912239, 13.6286574, 1075.06 ], [ -89.18915877, 13.62874651, 1076.99 ], [ -89.18923101, 13.62881153, 1076.77 ], [ -89.18934294, 13.62888074, 1076.45 ], [ -89.18946568, 13.62892177, 1074.8900000000001 ], [ -89.18960444, 13.6289971, 1071.36 ], [ -89.18974837, 13.62908365, 1068.52 ], [ -89.18987464, 13.62920583, 1067.85 ], [ -89.18995586, 13.62926695, 1067.33 ], [ -89.19002236, 13.62934671, 1065.35 ], [ -89.19010076, 13.62941438, 1064.02 ], [ -89.19017644, 13.62949114, 1062.85 ], [ -89.19025228, 13.62956218, 1061.36 ], [ -89.19032418, 13.62963481, 1060.52 ], [ -89.19038832, 13.62970331, 1059.3 ], [ -89.19046167, 13.62984643, 1056.67 ], [ -89.19047141, 13.63001066, 1054.869999999999891 ], [ -89.19039531, 13.63018362, 1052.55 ], [ -89.19032691, 13.63025044, 1051.58 ], [ -89.19024975, 13.63030329, 1050.36 ], [ -89.1901629, 13.63035015, 1048.6400000000001 ], [ -89.19000901, 13.63043477, 1045.98 ], [ -89.18993315, 13.63049473, 1044.68 ], [ -89.18981718, 13.63062286, 1042.04 ], [ -89.18971889, 13.63076089, 1041.58 ], [ -89.18970966, 13.63092399, 1040.51 ], [ -89.18972995, 13.63109435, 1038.51 ], [ -89.18974192, 13.63118422, 1038.32 ], [ -89.18974601, 13.63127883, 1038.06 ], [ -89.18974911, 13.63144735, 1036.619999999999891 ], [ -89.18972877, 13.63153989, 1036.54 ], [ -89.18972924, 13.63170842, 1035.78 ], [ -89.1897175, 13.63187115, 1035.18 ], [ -89.18967915, 13.63202604, 1033.67 ], [ -89.18959787, 13.63216532, 1032.630000000000109 ], [ -89.18946456, 13.632271, 1032.869999999999891 ], [ -89.18932355, 13.63232979, 1032.06 ], [ -89.18917124, 13.6323857, 1031.66 ], [ -89.1890456, 13.63244002, 1030.78 ], [ -89.18895345, 13.63254316, 1030.71 ], [ -89.18891696, 13.63267013, 1029.98 ], [ -89.18893434, 13.63281598, 1030.84 ], [ -89.18898764, 13.63296231, 1030.73 ], [ -89.18907237, 13.63310708, 1031.869999999999891 ], [ -89.18915791, 13.63326278, 1032.28 ], [ -89.18922737, 13.63341112, 1032.85 ], [ -89.18922957, 13.63356101, 1032.7 ], [ -89.18918161, 13.63365966, 1032.46 ], [ -89.18910339, 13.63378476, 1032.06 ], [ -89.18899714, 13.63386511, 1031.78 ], [ -89.18888118, 13.63395371, 1030.66 ], [ -89.18875916, 13.63405369, 1030.0 ], [ -89.18863933, 13.63415154, 1029.22 ], [ -89.18852472, 13.63426957, 1028.53 ], [ -89.18844141, 13.63441333, 1028.27 ], [ -89.18841409, 13.63450777, 1026.29 ], [ -89.18838087, 13.63459505, 1025.35 ], [ -89.18835033, 13.63469495, 1024.26 ], [ -89.18831513, 13.63479503, 1023.48 ], [ -89.18828284, 13.6348867, 1022.59 ], [ -89.18824482, 13.63498888, 1021.31 ], [ -89.18821623, 13.63509398, 1021.0 ], [ -89.1881897, 13.63518615, 1019.68 ], [ -89.18816043, 13.63527289, 1017.39 ], [ -89.18812802, 13.635358, 1015.97 ], [ -89.18807263, 13.63549725, 1012.94 ], [ -89.18804145, 13.63558736, 1011.55 ], [ -89.18801748, 13.6357043, 1009.72 ], [ -89.18802248, 13.6358079, 1008.43 ], [ -89.18802987, 13.63593678, 1006.67 ], [ -89.18805235, 13.63606384, 1005.3 ], [ -89.18807807, 13.63621483, 1003.91 ], [ -89.18808057, 13.6363812, 1003.82 ], [ -89.18806295, 13.6364744, 1003.42 ], [ -89.18800501, 13.6366247, 1002.32 ], [ -89.1879344, 13.63670883, 1000.65 ], [ -89.18783826, 13.6368205, 1000.45 ], [ -89.18776713, 13.63693576, 1001.18 ], [ -89.18768927, 13.63708889, 1002.49 ], [ -89.18761095, 13.63726133, 1003.12 ], [ -89.18756817, 13.63735167, 1003.52 ], [ -89.18752765, 13.63744162, 1005.06 ], [ -89.1874933, 13.63753624, 1005.4 ], [ -89.18745441, 13.63763353, 1005.7 ], [ -89.18741645, 13.63774106, 1005.59 ], [ -89.18739064, 13.63784795, 1005.65 ], [ -89.18738289, 13.63794092, 1005.84 ], [ -89.18736524, 13.63803326, 1005.9 ], [ -89.18735463, 13.6381357, 1005.02 ], [ -89.1873537, 13.63833539, 1004.74 ], [ -89.18736355, 13.63854, 1005.37 ], [ -89.18734135, 13.63866651, 1004.11 ], [ -89.18731906, 13.63878598, 1002.87 ], [ -89.18730113, 13.63892121, 1003.1 ], [ -89.1872852, 13.63905557, 1002.32 ], [ -89.18726227, 13.63919244, 1002.33 ], [ -89.18723956, 13.6393401, 1002.02 ], [ -89.18721863, 13.63945199, 1002.08 ], [ -89.1872045, 13.63959376, 1001.6 ], [ -89.18719206, 13.63971259, 1001.34 ], [ -89.18720161, 13.63984296, 1001.72 ], [ -89.18720911, 13.6399494, 1001.15 ], [ -89.18718185, 13.64004387, 999.64 ], [ -89.18717048, 13.64018843, 1000.0 ], [ -89.18715772, 13.64030519, 1000.48 ], [ -89.18711571, 13.64046568, 1000.41 ], [ -89.18704408, 13.64058353, 1000.11 ], [ -89.18707494, 13.64074734, 1003.24 ], [ -89.1870404, 13.64089662, 1002.88 ], [ -89.18706205, 13.64106609, 1003.46 ], [ -89.18706712, 13.64124111, 1008.38 ], [ -89.1870469, 13.6413604, 1005.11 ], [ -89.18701838, 13.64150133, 1004.9 ], [ -89.18701969, 13.64163262, 1002.97 ] ], [ [ -89.1870279, 13.64164132, 1005.42 ], [ -89.1870342, 13.6417791, 1006.57 ], [ -89.18702368, 13.64189312, 1008.67 ], [ -89.18702781, 13.64203396, 1011.41 ], [ -89.18704484, 13.64218555, 1012.3 ], [ -89.18705451, 13.64233649, 1012.8 ], [ -89.18708662, 13.64249675, 1012.65 ], [ -89.18712119, 13.6426643, 1014.8 ], [ -89.1871735, 13.64281454, 1016.2 ], [ -89.18724754, 13.64295459, 1016.53 ], [ -89.18732983, 13.64309505, 1017.66 ], [ -89.18741063, 13.6432268, 1017.63 ], [ -89.18746324, 13.64331911, 1016.99 ], [ -89.18751819, 13.64341096, 1017.08 ], [ -89.18758417, 13.6435285, 1016.67 ], [ -89.1876419, 13.6436453, 1015.93 ], [ -89.18770535, 13.64378705, 1016.02 ], [ -89.18776871, 13.64394061, 1014.83 ], [ -89.18779437, 13.64409467, 1014.2 ], [ -89.18781564, 13.64424112, 1013.76 ], [ -89.1878231, 13.64438302, 1014.06 ], [ -89.18781739, 13.64450247, 1014.76 ], [ -89.18780784, 13.64460473, 1015.31 ], [ -89.18778938, 13.64470615, 1015.92 ], [ -89.18777582, 13.64481471, 1016.34 ], [ -89.18775692, 13.64493861, 1017.42 ], [ -89.18773498, 13.64508637, 1018.47 ], [ -89.18771431, 13.64524054, 1019.51 ], [ -89.18769408, 13.6453771, 1019.98 ], [ -89.18767312, 13.64549767, 1019.81 ], [ -89.18764739, 13.64559464, 1018.68 ] ] ] } },
{ "type": "Feature", "properties": { "fid": 7, "Tipo": "Asfalto", "src": "Registrado con Geo Tracker para Android de Ilya Bogdanovich", "geotracker_meta": "        <geotracker:length>83.1</geotracker:length>        <geotracker:duration>29025</geotracker:duration>        <geotracker:creationtime>2026-06-11T22:51:56Z</geotracker:creationtime>        <geotracker:activity>0</geotracker:activity>      ", "layer": "Asfalto(4) — tracks", "path": "C:\\Users\\AMSSS-INNOVACION\\OneDrive\\Imágenes\\Escritorio\\sss\\Levantamiento de calles SSS\\Panchimalco\\calles 11-6-2026\\11-06-2026\\Asfalto(4).gpx|layername=tracks", "Nombre": null, "img": null }, "geometry": { "type": "MultiLineString", "coordinates": [ [ [ -89.17998687, 13.60794123, 569.36 ], [ -89.18004282, 13.60785761, 571.53 ], [ -89.180096293236616, 13.607756959481058, 573.58 ], [ -89.180156122984741, 13.607681689797932, 574.0 ], [ -89.18022929, 13.60755736, 572.62 ], [ -89.18026503, 13.60747233, 570.88 ], [ -89.1802858, 13.60736829, 569.06 ], [ -89.180445621765969, 13.607118132170418, 567.18 ] ], [ [ -89.18039365, 13.60722183, 564.88 ] ] ] } },
{ "type": "Feature", "properties": { "fid": 8, "Tipo": "Asfalto", "src": "Registrado con Geo Tracker para Android de Ilya Bogdanovich", "geotracker_meta": "        <geotracker:length>96.55</geotracker:length>        <geotracker:duration>32020</geotracker:duration>        <geotracker:creationtime>2026-06-11T23:14:54Z</geotracker:creationtime>        <geotracker:activity>0</geotracker:activity>      ", "layer": "Asfalto(5) — tracks", "path": "C:\\Users\\AMSSS-INNOVACION\\OneDrive\\Imágenes\\Escritorio\\sss\\Levantamiento de calles SSS\\Panchimalco\\calles 11-6-2026\\11-06-2026\\Asfalto(5).gpx|layername=tracks", "Nombre": null, "img": null }, "geometry": { "type": "MultiLineString", "coordinates": [ [ [ -89.17997527150527, 13.607947278018443, 573.35 ], [ -89.179746644629645, 13.608282597436023, 0.0 ], [ -89.17967566, 13.60857465, 575.13 ], [ -89.17966223, 13.60868063, 576.04 ], [ -89.17960527, 13.60879522, 579.66 ], [ -89.17953321, 13.60887341, 579.9 ], [ -89.17945458, 13.60895344, 581.79 ], [ -89.17936123, 13.60904281, 585.37 ], [ -89.17929285, 13.60912804, 587.1 ], [ -89.17923468, 13.60919974, 587.27 ] ] ] } },
{ "type": "Feature", "properties": { "fid": 9, "Tipo": "Entrada de parque acuático ", "src": "Registrado con Geo Tracker para Android de Ilya Bogdanovich", "geotracker_meta": "        <geotracker:length>32.12</geotracker:length>        <geotracker:duration>105664</geotracker:duration>        <geotracker:creationtime>2026-06-11T16:40:11Z</geotracker:creationtime>        <geotracker:activity>0</geotracker:activity>      ", "layer": "Entrada_de_parque_acuático — tracks", "path": "C:\\Users\\AMSSS-INNOVACION\\OneDrive\\Imágenes\\Escritorio\\sss\\Levantamiento de calles SSS\\Panchimalco\\calles 11-6-2026\\11-06-2026\\Entrada_de_parque_acuático.gpx|layername=tracks", "Nombre": null, "img": null }, "geometry": { "type": "MultiLineString", "coordinates": [ [ [ -89.18190386, 13.61050702, 574.51 ], [ -89.18196573, 13.61043387, 573.33 ], [ -89.18200097, 13.61034175, 572.79 ], [ -89.18203514, 13.6102507, 568.49 ] ] ] } },
{ "type": "Feature", "properties": { "fid": 10, "Tipo": "Huella vehicular", "src": "Registrado con Geo Tracker para Android de Ilya Bogdanovich", "geotracker_meta": "        <geotracker:length>74.24</geotracker:length>        <geotracker:duration>69051</geotracker:duration>        <geotracker:creationtime>2026-06-11T18:31:20Z</geotracker:creationtime>        <geotracker:activity>0</geotracker:activity>      ", "layer": "Huella_vehicular — tracks", "path": "C:\\Users\\AMSSS-INNOVACION\\OneDrive\\Imágenes\\Escritorio\\sss\\Levantamiento de calles SSS\\Panchimalco\\calles 11-6-2026\\11-06-2026\\Huella_vehicular.gpx|layername=tracks", "Nombre": null, "img": null }, "geometry": { "type": "MultiLineString", "coordinates": [ [ [ -89.177921747766121, 13.612980346267291, 626.65 ], [ -89.177805910149132, 13.612971201192266, 623.01 ], [ -89.177700741786353, 13.612931572533824, 624.77 ], [ -89.177580331631859, 13.612907185667092, 622.11 ], [ -89.177491158954084, 13.612923967462489, 620.26 ], [ -89.177417244460585, 13.612942241788021, 618.49 ], [ -89.177325793710338, 13.612966628654753, 616.4 ], [ -89.177280068335207, 13.612983394625633, 0.0 ], [ -89.177252633110129, 13.613015402388219, 616.07 ] ] ] } },
{ "type": "Feature", "properties": { "fid": 11, "Tipo": "Pavimento", "src": "Registrado con Geo Tracker para Android de Ilya Bogdanovich", "geotracker_meta": "        <geotracker:length>62.14</geotracker:length>        <geotracker:duration>228856</geotracker:duration>        <geotracker:creationtime>2026-06-11T16:21:15Z</geotracker:creationtime>        <geotracker:activity>0</geotracker:activity>      ", "layer": "Pavimento — tracks", "path": "C:\\Users\\AMSSS-INNOVACION\\OneDrive\\Imágenes\\Escritorio\\sss\\Levantamiento de calles SSS\\Panchimalco\\calles 11-6-2026\\11-06-2026\\Pavimento.gpx|layername=tracks", "Nombre": null, "img": null }, "geometry": { "type": "MultiLineString", "coordinates": [ [ [ -89.180514376535712, 13.611781579349474, 591.1 ], [ -89.180634786690192, 13.611686318151282, 594.34 ], [ -89.180701850573712, 13.611622302626106, 586.74 ], [ -89.18078393, 13.61157086, 587.49 ], [ -89.18085602, 13.61150891, 585.7 ], [ -89.18092638, 13.61144777, 587.24 ], [ -89.181025738647506, 13.611197056637449, 0.0 ], [ -89.181077560739311, 13.611175718129058, 0.0 ], [ -89.18118196701252, 13.611146758724818, 587.43 ] ] ] } },
{ "type": "Feature", "properties": { "fid": 12, "Tipo": "Pavimento", "src": "Registrado con Geo Tracker para Android de Ilya Bogdanovich", "geotracker_meta": "        <geotracker:length>10.69</geotracker:length>        <geotracker:duration>21033</geotracker:duration>        <geotracker:creationtime>2026-06-11T18:32:56Z</geotracker:creationtime>        <geotracker:activity>0</geotracker:activity>      ", "layer": "Pavimento(1) — tracks", "path": "C:\\Users\\AMSSS-INNOVACION\\OneDrive\\Imágenes\\Escritorio\\sss\\Levantamiento de calles SSS\\Panchimalco\\calles 11-6-2026\\11-06-2026\\Pavimento(1).gpx|layername=tracks", "Nombre": null, "img": null }, "geometry": { "type": "MultiLineString", "coordinates": [ [ [ -89.177252633110129, 13.613019974925733, 607.6 ], [ -89.17718861758496, 13.613140385080227, 609.62 ] ] ] } },
{ "type": "Feature", "properties": { "fid": 13, "Tipo": "Pavimento", "src": "Registrado con Geo Tracker para Android de Ilya Bogdanovich", "geotracker_meta": "        <geotracker:length>122.15</geotracker:length>        <geotracker:duration>116106</geotracker:duration>        <geotracker:creationtime>2026-06-11T21:41:47Z</geotracker:creationtime>        <geotracker:activity>0</geotracker:activity>      ", "layer": "Pavimento(2) — tracks", "path": "C:\\Users\\AMSSS-INNOVACION\\OneDrive\\Imágenes\\Escritorio\\sss\\Levantamiento de calles SSS\\Panchimalco\\calles 11-6-2026\\11-06-2026\\Pavimento(2).gpx|layername=tracks", "Nombre": null, "img": null }, "geometry": { "type": "MultiLineString", "coordinates": [ [ [ -89.204319197347971, 13.614224648037903, 935.48 ], [ -89.20413244, 13.61419387, 934.62 ], [ -89.204009788976293, 13.614149963258534, 932.77 ], [ -89.203919862405215, 13.614108810420921, 930.22 ], [ -89.203863467775889, 13.614069181762479, 928.01 ], [ -89.20375732, 13.61403578, 927.85 ], [ -89.20365269, 13.61398812, 924.89 ], [ -89.20356129925527, 13.613958297727812, 923.6 ], [ -89.203457655071645, 13.613924765786054, 922.29 ], [ -89.203381446113113, 13.613912572352687, 922.27 ], [ -89.20331001, 13.61390595, 921.39 ], [ -89.20322132, 13.61386737, 918.08 ] ] ] } },
{ "type": "Feature", "properties": { "fid": 14, "Tipo": "Pavimento", "src": "Registrado con Geo Tracker para Android de Ilya Bogdanovich", "geotracker_meta": "        <geotracker:length>131.2</geotracker:length>        <geotracker:duration>91072</geotracker:duration>        <geotracker:creationtime>2026-06-11T21:45:41Z</geotracker:creationtime>        <geotracker:activity>0</geotracker:activity>      ", "layer": "Pavimento(3) — tracks", "path": "C:\\Users\\AMSSS-INNOVACION\\OneDrive\\Imágenes\\Escritorio\\sss\\Levantamiento de calles SSS\\Panchimalco\\calles 11-6-2026\\11-06-2026\\Pavimento(3).gpx|layername=tracks", "Nombre": null, "img": null }, "geometry": { "type": "MultiLineString", "coordinates": [ [ [ -89.202383727954057, 13.613805689288336, 908.58 ], [ -89.202215306155693, 13.613752914584548, 905.65 ], [ -89.202116234509589, 13.613713285926108, 905.84 ], [ -89.202021735401004, 13.61368127816352, 911.09 ], [ -89.201923425844484, 13.613637076967567, 910.75 ], [ -89.201851789423458, 13.613599734577882, 913.76 ], [ -89.201738047552837, 13.613546578829302, 919.45 ], [ -89.201648883071343, 13.613496280916666, 920.09 ], [ -89.201582581277407, 13.613442172556102, 924.05 ], [ -89.201465791048449, 13.613404449121624, 923.3 ], [ -89.201347667162707, 13.613369393000696, 920.95 ], [ -89.201274506562513, 13.613354913298574, 919.02 ], [ -89.201170100289303, 13.613338147327694, 916.95 ] ] ] } },
{ "type": "Feature", "properties": { "fid": 15, "Tipo": "Pavimento", "src": "Registrado con Geo Tracker para Android de Ilya Bogdanovich", "geotracker_meta": "        <geotracker:length>592.08</geotracker:length>        <geotracker:duration>88066</geotracker:duration>        <geotracker:creationtime>2026-06-11T22:12:25Z</geotracker:creationtime>        <geotracker:activity>0</geotracker:activity>      ", "layer": "Pavimento(4) — tracks", "path": "C:\\Users\\AMSSS-INNOVACION\\OneDrive\\Imágenes\\Escritorio\\sss\\Levantamiento de calles SSS\\Panchimalco\\calles 11-6-2026\\11-06-2026\\Pavimento(4).gpx|layername=tracks", "Nombre": null, "img": null }, "geometry": { "type": "MultiLineString", "coordinates": [ [ [ -89.20153509357003, 13.614879092469375, 957.93 ], [ -89.201417731773887, 13.61485318142347, 0.0 ], [ -89.201330853561146, 13.614866899036008, 0.0 ], [ -89.2012659, 13.6149212, 958.59 ], [ -89.2012041, 13.61502062, 957.36 ], [ -89.20115935, 13.6151313, 957.8 ], [ -89.20108137, 13.61526711, 959.38 ], [ -89.20100696, 13.61541225, 962.43 ], [ -89.20097255, 13.61555668, 964.23 ], [ -89.20095192, 13.61570865, 965.98 ], [ -89.2009458, 13.6158614, 966.75 ], [ -89.20094144, 13.61600673, 966.76 ], [ -89.20093358, 13.61615144, 968.39 ], [ -89.20092623, 13.61628996, 969.2 ], [ -89.20082186, 13.6164055, 969.75 ], [ -89.20073089, 13.61651398, 969.98 ], [ -89.20060141, 13.61664436, 971.1 ], [ -89.20047174, 13.61677732, 974.09 ], [ -89.20039854, 13.61683642, 975.37 ], [ -89.20032303, 13.61689722, 975.58 ], [ -89.20024272, 13.6169535, 975.98 ], [ -89.20015747, 13.61700729, 976.05 ], [ -89.20007133, 13.61705452, 977.51 ], [ -89.19999176, 13.61710919, 977.67 ], [ -89.19990762, 13.61715963, 977.69 ], [ -89.19981924, 13.61720169, 977.96 ], [ -89.19965545, 13.61727814, 981.77 ], [ -89.1995151, 13.61733779, 984.53 ], [ -89.19942486, 13.61736757, 986.23 ], [ -89.1993296, 13.61740661, 991.3 ], [ -89.19922252, 13.61746292, 992.22 ], [ -89.19913682, 13.61750455, 994.91 ], [ -89.19900494, 13.61755474, 997.84 ], [ -89.19887964, 13.61760871, 999.47 ], [ -89.19874587, 13.617654, 1001.17 ], [ -89.19861997, 13.61769243, 1003.91 ], [ -89.19850299, 13.6177249, 1005.17 ], [ -89.19841258, 13.61774608, 1005.03 ], [ -89.19829084, 13.61777324, 1006.17 ], [ -89.19817979, 13.61780133, 1008.51 ], [ -89.19805277, 13.61784871, 1008.8 ], [ -89.19791289, 13.61789408, 1009.49 ], [ -89.1977768, 13.61793749, 1010.32 ], [ -89.19764616, 13.61797352, 1010.37 ], [ -89.19752493, 13.61799378, 1010.22 ] ] ] } },
{ "type": "Feature", "properties": { "fid": 16, "Tipo": "Pavimento", "src": "Registrado con Geo Tracker para Android de Ilya Bogdanovich", "geotracker_meta": "        <geotracker:length>84.08</geotracker:length>        <geotracker:duration>27023</geotracker:duration>        <geotracker:creationtime>2026-06-11T22:15:42Z</geotracker:creationtime>        <geotracker:activity>0</geotracker:activity>      ", "layer": "Pavimento(5) — tracks", "path": "C:\\Users\\AMSSS-INNOVACION\\OneDrive\\Imágenes\\Escritorio\\sss\\Levantamiento de calles SSS\\Panchimalco\\calles 11-6-2026\\11-06-2026\\Pavimento(5).gpx|layername=tracks", "Nombre": null, "img": null }, "geometry": { "type": "MultiLineString", "coordinates": [ [ [ -89.195953549446472, 13.618427381579036, 1039.04 ], [ -89.19579434, 13.61867546, 1039.869999999999891 ], [ -89.1957381, 13.61877266, 1040.5 ], [ -89.19566144, 13.61884955, 1038.16 ], [ -89.19553307, 13.61885631, 1035.21 ], [ -89.19542227, 13.61884801, 1035.77 ], [ -89.19532465, 13.61885764, 1038.3900000000001 ], [ -89.19521903, 13.61886081, 1038.380000000000109 ] ] ] } },
{ "type": "Feature", "properties": { "fid": 17, "Tipo": "Pavimento", "src": "Registrado con Geo Tracker para Android de Ilya Bogdanovich", "geotracker_meta": "        <geotracker:length>546.78</geotracker:length>        <geotracker:duration>196122</geotracker:duration>        <geotracker:creationtime>2026-06-11T22:52:30Z</geotracker:creationtime>        <geotracker:activity>0</geotracker:activity>      ", "layer": "Pavimento(6) — tracks", "path": "C:\\Users\\AMSSS-INNOVACION\\OneDrive\\Imágenes\\Escritorio\\sss\\Levantamiento de calles SSS\\Panchimalco\\calles 11-6-2026\\11-06-2026\\Pavimento(6).gpx|layername=tracks", "Nombre": null, "img": null }, "geometry": { "type": "MultiLineString", "coordinates": [ [ [ -89.180449481749719, 13.60710655221917, 563.16 ], [ -89.18048956, 13.60701171, 561.86 ], [ -89.18051759, 13.60692428, 560.34 ], [ -89.18058479, 13.60682595, 559.13 ], [ -89.18065606, 13.60673986, 558.87 ], [ -89.18070676, 13.60666276, 558.67 ], [ -89.1807786, 13.60660318, 557.73 ], [ -89.18085143, 13.60653816, 559.43 ], [ -89.18094624, 13.60649577, 557.6 ], [ -89.18105172, 13.6064852, 555.01 ], [ -89.18114899, 13.60647212, 554.08 ], [ -89.18126209, 13.60646567, 553.94 ], [ -89.18138319, 13.60644667, 552.81 ], [ -89.18149634, 13.6064272, 550.62 ], [ -89.18159937, 13.60639729, 549.89 ], [ -89.18171471, 13.60637655, 549.91 ], [ -89.18181869, 13.60633371, 549.44 ], [ -89.18188833, 13.60626502, 546.79 ], [ -89.18196074, 13.60620483, 546.05 ], [ -89.18204001, 13.60611177, 545.44 ], [ -89.18210318, 13.60603127, 544.69 ], [ -89.18215682, 13.60594226, 543.4 ], [ -89.18221056, 13.6058582, 541.42 ], [ -89.18226423, 13.60577033, 540.44 ], [ -89.18232244, 13.60568316, 540.05 ], [ -89.18242333, 13.60560503, 537.56 ], [ -89.18250414, 13.60554669, 538.51 ], [ -89.18257586, 13.60547534, 540.21 ], [ -89.18264306, 13.6053912, 540.57 ], [ -89.18269615, 13.60529221, 540.08 ], [ -89.18275675, 13.60519633, 540.16 ], [ -89.18276393, 13.60508654, 537.18 ], [ -89.18278511, 13.6049828, 538.26 ], [ -89.18280133, 13.60489361, 537.01 ], [ -89.18279473, 13.60479482, 538.98 ], [ -89.18277539, 13.60469708, 539.97 ], [ -89.18275924, 13.60458959, 538.93 ], [ -89.18275831, 13.60448586, 539.66 ], [ -89.18275117, 13.60436135, 539.39 ], [ -89.18273628, 13.60424107, 539.26 ], [ -89.18274576, 13.60413395, 539.62 ], [ -89.1827664, 13.60402638, 540.18 ], [ -89.18279303, 13.60392642, 539.89 ], [ -89.18284023, 13.60383816, 534.73 ], [ -89.18286194, 13.60374213, 535.85 ], [ -89.18288555, 13.6036454, 534.83 ], [ -89.18289945, 13.60355002, 531.11 ], [ -89.182887061487918, 13.60329288827408, 531.78 ] ] ] } },
{ "type": "Feature", "properties": { "fid": 18, "Tipo": "Pavimento", "src": "Registrado con Geo Tracker para Android de Ilya Bogdanovich", "geotracker_meta": "        <geotracker:length>102.21</geotracker:length>        <geotracker:duration>32024</geotracker:duration>        <geotracker:creationtime>2026-06-11T22:58:01Z</geotracker:creationtime>        <geotracker:activity>0</geotracker:activity>      ", "layer": "Pavimento(7) — tracks", "path": "C:\\Users\\AMSSS-INNOVACION\\OneDrive\\Imágenes\\Escritorio\\sss\\Levantamiento de calles SSS\\Panchimalco\\calles 11-6-2026\\11-06-2026\\Pavimento(7).gpx|layername=tracks", "Nombre": "Calle antigua a Rosario de Mora", "img": null }, "geometry": { "type": "MultiLineString", "coordinates": [ [ [ -89.18302542, 13.60159327, 526.84 ], [ -89.18302944, 13.60149917, 526.6 ], [ -89.18304463, 13.60140127, 524.79 ], [ -89.183054468754534, 13.601289510982406, 525.21 ], [ -89.183078855621261, 13.601197298142571, 525.65 ], [ -89.183113911742197, 13.601060122017198, 523.28 ], [ -89.183123056817209, 13.600974767983631, 521.32 ], [ -89.18314287114643, 13.600877220516701, 518.64 ], [ -89.183164209654834, 13.600778148870598, 514.56 ], [ -89.183222128463314, 13.600682125582836, 514.57 ] ] ] } },
{ "type": "Feature", "properties": { "fid": 19, "Tipo": "Piedra", "src": "Registrado con Geo Tracker para Android de Ilya Bogdanovich", "geotracker_meta": "        <geotracker:length>85.95</geotracker:length>        <geotracker:duration>110083</geotracker:duration>        <geotracker:creationtime>2026-06-11T21:43:48Z</geotracker:creationtime>        <geotracker:activity>0</geotracker:activity>      ", "layer": "Piedra — tracks", "path": "C:\\Users\\AMSSS-INNOVACION\\OneDrive\\Imágenes\\Escritorio\\sss\\Levantamiento de calles SSS\\Panchimalco\\calles 11-6-2026\\11-06-2026\\Piedra.gpx|layername=tracks", "Nombre": null, "img": null }, "geometry": { "type": "MultiLineString", "coordinates": [ [ [ -89.203221312038991, 13.613867228022354, 919.9 ], [ -89.20301537, 13.61379652, 915.58 ], [ -89.20291752, 13.61379105, 914.58 ], [ -89.20282025, 13.61376798, 909.07 ], [ -89.20273295, 13.61372424, 905.02 ], [ -89.20264446, 13.61368209, 907.56 ], [ -89.20255339, 13.61371126, 903.03 ], [ -89.20248299, 13.61378743, 906.11 ], [ -89.20238437, 13.61380611, 909.5 ] ] ] } },
{ "type": "Feature", "properties": { "fid": 22, "Tipo": "Tierra", "src": "Registrado con Geo Tracker para Android de Ilya Bogdanovich", "geotracker_meta": "        <geotracker:length>241.42</geotracker:length>        <geotracker:duration>294239</geotracker:duration>        <geotracker:creationtime>2026-06-11T18:33:26Z</geotracker:creationtime>        <geotracker:activity>0</geotracker:activity>      ", "layer": "Tierra — tracks", "path": "C:\\Users\\AMSSS-INNOVACION\\OneDrive\\Imágenes\\Escritorio\\sss\\Levantamiento de calles SSS\\Panchimalco\\calles 11-6-2026\\11-06-2026\\Tierra.gpx|layername=tracks", "Nombre": null, "img": null }, "geometry": { "type": "MultiLineString", "coordinates": [ [ [ -89.177187093405792, 13.613141909259397, 608.28 ], [ -89.17713455, 13.613273, 609.22 ], [ -89.17708255, 13.61335024, 608.73 ], [ -89.17699919, 13.61340792, 612.57 ], [ -89.17690742, 13.61342265, 610.04 ], [ -89.1768094, 13.61339884, 610.38 ], [ -89.17671842, 13.61338293, 611.77 ], [ -89.17663885, 13.61343274, 611.18 ], [ -89.17657439, 13.61349908, 611.8 ], [ -89.1765128, 13.61356988, 613.04 ], [ -89.17642669, 13.61360674, 614.89 ], [ -89.17633942, 13.61365694, 614.58 ], [ -89.17625082, 13.61371129, 615.48 ], [ -89.17616255, 13.61375396, 615.23 ], [ -89.17606916, 13.61377388, 617.26 ], [ -89.1759754, 13.61376783, 617.66 ], [ -89.17589713, 13.61381713, 617.72 ], [ -89.17581998, 13.61388161, 616.45 ], [ -89.17575654, 13.61395471, 615.68 ], [ -89.17569522, 13.61403277, 614.45 ], [ -89.1756251, 13.61409542, 609.94 ], [ -89.17556204, 13.61416453, 608.39 ], [ -89.17548699, 13.61421876, 608.88 ], [ -89.17539051, 13.61423847, 606.78 ] ] ] } },
{ "type": "Feature", "properties": { "fid": 23, "Tipo": "Tierra", "src": "Registrado con Geo Tracker para Android de Ilya Bogdanovich", "geotracker_meta": "        <geotracker:length>184.63</geotracker:length>        <geotracker:duration>128619</geotracker:duration>        <geotracker:creationtime>2026-06-11T22:55:49Z</geotracker:creationtime>        <geotracker:activity>0</geotracker:activity>      ", "layer": "Tierra(1) — tracks", "path": "C:\\Users\\AMSSS-INNOVACION\\OneDrive\\Imágenes\\Escritorio\\sss\\Levantamiento de calles SSS\\Panchimalco\\calles 11-6-2026\\11-06-2026\\Tierra(1).gpx|layername=tracks", "Nombre": "Calle antigua a Rosario de Mora", "img": null }, "geometry": { "type": "MultiLineString", "coordinates": [ [ [ -89.18288849, 13.60328422, 528.54 ], [ -89.18289178, 13.6031802, 532.19 ], [ -89.18290044, 13.60308141, 526.43 ], [ -89.1829108, 13.60298737, 527.95 ], [ -89.18292151, 13.60288505, 525.66 ], [ -89.1829391, 13.60278676, 523.22 ], [ -89.18294409, 13.60268864, 525.05 ], [ -89.18295429, 13.60259509, 524.45 ], [ -89.18296534, 13.60249481, 525.44 ], [ -89.18296697, 13.60239394, 527.45 ], [ -89.18297157, 13.60229894, 528.9 ], [ -89.18297117, 13.60220483, 528.8 ], [ -89.18299405, 13.60211419, 530.06 ], [ -89.18299952, 13.60201506, 528.36 ], [ -89.182999966012574, 13.601911014091545, 528.45 ], [ -89.183003825996337, 13.60182802444092, 526.38 ], [ -89.18302843, 13.60172329, 527.06 ], [ -89.183021195923217, 13.601600285399666, 528.22 ] ] ] } }
]
}
