{
"type": "FeatureCollection",
"name": "CALLES SAN MARCOS",
"crs": { "type": "name", "properties": { "name": "urn:ogc:def:crs:OGC:1.3:CRS84" } },
"features": [
{ "type": "Feature", "properties": { "fid": 1, "name": "15 jun 2026 09:50:26", "src": "Registrado con Geo Tracker para Android de Ilya Bogdanovich", "link1_href": "https://play.google.com/store/apps/details?id=com.ilyabogdanovich.geotracker", "geotracker_meta": "        <geotracker:length>275.56</geotracker:length>        <geotracker:duration>111121</geotracker:duration>        <geotracker:creationtime>2026-06-15T15:50:26Z</geotracker:creationtime>        <geotracker:activity>0</geotracker:activity>      ", "layer": "15_jun_2026_09_50_26 — tracks", "path": "C:\\Users\\AMSSS-INNOVACION\\OneDrive\\Imágenes\\Escritorio\\sss\\Levantamiento de calles SSS\\Levantamientos San Marcos-20260616T165238Z-3-001\\Levantamientos San Marcos\\15-06-2026\\15_jun_2026_09_50_26.gpx|layername=tracks", "Estado": null, "img": null, "img2": null }, "geometry": { "type": "MultiLineString", "coordinates": [ [ [ -89.186207177524736, 13.669716646837863, 737.58 ], [ -89.18588182, 13.66975499, 736.35 ], [ -89.18578205, 13.66973789, 735.58 ], [ -89.18569592, 13.66970144, 735.07 ], [ -89.18565633, 13.66960011, 733.27 ], [ -89.1856758, 13.66950314, 731.92 ], [ -89.18573023, 13.66940376, 729.24 ], [ -89.18581004, 13.66933301, 727.73 ], [ -89.18588842, 13.6692797, 727.21 ], [ -89.18597222, 13.66920576, 725.21 ], [ -89.18605072, 13.66913371, 722.47 ], [ -89.18611584, 13.66906817, 720.67 ], [ -89.18619255, 13.66897819, 718.83 ], [ -89.18623208, 13.6688917, 719.31 ], [ -89.18627349, 13.66880728, 717.38 ], [ -89.18634368, 13.66870257, 716.7 ], [ -89.18643463, 13.66864257, 715.02 ], [ -89.18654752, 13.66861083, 713.23 ], [ -89.18666073, 13.66860604, 711.08 ], [ -89.18677482, 13.66859392, 709.96 ], [ -89.18687843, 13.66857439, 708.78 ], [ -89.1869675, 13.66854571, 709.22 ], [ -89.18706603, 13.66853034, 707.21 ], [ -89.18715909, 13.66852329, 706.22 ], [ -89.18725934, 13.66850323, 706.22 ] ] ] } },
{ "type": "Feature", "properties": { "fid": 2, "name": "15 jun 2026 10:13:43", "src": "Registrado con Geo Tracker para Android de Ilya Bogdanovich", "link1_href": "https://play.google.com/store/apps/details?id=com.ilyabogdanovich.geotracker", "geotracker_meta": "        <geotracker:length>120.82</geotracker:length>        <geotracker:duration>55049</geotracker:duration>        <geotracker:creationtime>2026-06-15T16:13:43Z</geotracker:creationtime>        <geotracker:activity>0</geotracker:activity>      ", "layer": "15_jun_2026_10_13_43 — tracks", "path": "C:\\Users\\AMSSS-INNOVACION\\OneDrive\\Imágenes\\Escritorio\\sss\\Levantamiento de calles SSS\\Levantamientos San Marcos-20260616T165238Z-3-001\\Levantamientos San Marcos\\15-06-2026\\15_jun_2026_10_13_43.gpx|layername=tracks", "Estado": null, "img": null, "img2": null }, "geometry": { "type": "MultiLineString", "coordinates": [ [ [ -89.17567255, 13.65859997, 868.81 ], [ -89.17561757, 13.6586817, 870.36 ], [ -89.17555363, 13.65876641, 872.2 ], [ -89.17550834, 13.65885079, 873.17 ], [ -89.17551804, 13.65895826, 874.93 ], [ -89.17557321, 13.65904384, 876.24 ], [ -89.1756131, 13.65913649, 877.09 ], [ -89.17566386, 13.6592252, 877.72 ], [ -89.17570816, 13.65931408, 876.62 ], [ -89.17573431, 13.65940999, 875.85 ], [ -89.17574965, 13.65950156, 875.43 ], [ -89.17575826, 13.65959262, 874.95 ] ] ] } },
{ "type": "Feature", "properties": { "fid": 3, "name": "15 jun 2026 10:19:38", "src": "Registrado con Geo Tracker para Android de Ilya Bogdanovich", "link1_href": "https://play.google.com/store/apps/details?id=com.ilyabogdanovich.geotracker", "geotracker_meta": "        <geotracker:length>54.36</geotracker:length>        <geotracker:duration>87876</geotracker:duration>        <geotracker:creationtime>2026-06-15T16:19:38Z</geotracker:creationtime>        <geotracker:activity>0</geotracker:activity>      ", "layer": "15_jun_2026_10_19_38 — tracks", "path": "C:\\Users\\AMSSS-INNOVACION\\OneDrive\\Imágenes\\Escritorio\\sss\\Levantamiento de calles SSS\\Levantamientos San Marcos-20260616T165238Z-3-001\\Levantamientos San Marcos\\15-06-2026\\15_jun_2026_10_19_38.gpx|layername=tracks", "Estado": null, "img": null, "img2": null }, "geometry": { "type": "MultiLineString", "coordinates": [ [ [ -89.1756919, 13.66181368, 921.75 ], [ -89.17579531, 13.66179218, 922.92 ], [ -89.17587359, 13.66173077, 922.23 ], [ -89.17591603, 13.66164906, 920.68 ], [ -89.17596206, 13.66155863, 919.01 ], [ -89.17600249, 13.6614699, 917.03 ] ] ] } },
{ "type": "Feature", "properties": { "fid": 4, "name": "15 jun 2026 15:10:13", "src": "Registrado con Geo Tracker para Android de Ilya Bogdanovich", "link1_href": "https://play.google.com/store/apps/details?id=com.ilyabogdanovich.geotracker", "geotracker_meta": "        <geotracker:length>96.23</geotracker:length>        <geotracker:duration>125823</geotracker:duration>        <geotracker:creationtime>2026-06-15T21:10:13Z</geotracker:creationtime>        <geotracker:activity>0</geotracker:activity>      ", "layer": "15_jun_2026_15_10_13 — tracks", "path": "C:\\Users\\AMSSS-INNOVACION\\OneDrive\\Imágenes\\Escritorio\\sss\\Levantamiento de calles SSS\\Levantamientos San Marcos-20260616T165238Z-3-001\\Levantamientos San Marcos\\15-06-2026\\15_jun_2026_15_10_13.gpx|layername=tracks", "Estado": "Adoquin", "img": null, "img2": null }, "geometry": { "type": "MultiLineString", "coordinates": [ [ [ -89.18169192, 13.65503758, 739.76 ], [ -89.18178771, 13.65501833, 738.69 ], [ -89.18188177, 13.65502476, 739.6 ], [ -89.18199144, 13.65505297, 741.78 ], [ -89.18208848, 13.65509546, 741.65 ], [ -89.18217243, 13.65514281, 742.22 ], [ -89.18226091, 13.65516974, 739.05 ], [ -89.18236079, 13.65518759, 740.09 ], [ -89.18245407, 13.65518878, 740.5 ], [ -89.18252944, 13.6552424, 742.17 ] ] ] } },
{ "type": "Feature", "properties": { "fid": 5, "name": "Calle principal Santa Paula", "src": "Registrado con Geo Tracker para Android de Ilya Bogdanovich", "link1_href": "https://play.google.com/store/apps/details?id=com.ilyabogdanovich.geotracker", "geotracker_meta": "        <geotracker:length>617.64</geotracker:length>        <geotracker:duration>197160</geotracker:duration>        <geotracker:creationtime>2026-06-15T21:18:34Z</geotracker:creationtime>        <geotracker:activity>0</geotracker:activity>      ", "layer": "15_jun_2026_15_18_34 — tracks", "path": "C:\\Users\\AMSSS-INNOVACION\\OneDrive\\Imágenes\\Escritorio\\sss\\Levantamiento de calles SSS\\Levantamientos San Marcos-20260616T165238Z-3-001\\Levantamientos San Marcos\\15-06-2026\\15_jun_2026_15_18_34.gpx|layername=tracks", "Estado": "Pavimento", "img": "C:\\Users\\AMSSS-INNOVACION\\OneDrive\\Imágenes\\Escritorio\\sss\\Levantamiento de calles SSS\\Levantamientos San Marcos-20260616T165238Z-3-001\\Fotos de calles\\Calle principal santa paula.jpg", "img2": null }, "geometry": { "type": "MultiLineString", "coordinates": [ [ [ -89.18191994, 13.65496039, 742.61 ], [ -89.18181576, 13.65490975, 743.28 ], [ -89.18171093, 13.65485214, 744.39 ], [ -89.18162441, 13.65481195, 746.0 ], [ -89.18153706, 13.65478101, 747.74 ], [ -89.18143389, 13.65473228, 749.57 ], [ -89.18133491, 13.6546621, 751.24 ], [ -89.18124066, 13.65459998, 752.19 ], [ -89.18120556, 13.65448866, 750.88 ], [ -89.18119011, 13.65436808, 750.79 ], [ -89.18116439, 13.65427367, 751.22 ], [ -89.18112363, 13.65417942, 752.08 ], [ -89.18108604, 13.65409255, 752.13 ], [ -89.18103683, 13.65400062, 751.88 ], [ -89.18098998, 13.65390876, 751.23 ], [ -89.1809522, 13.65381048, 752.28 ], [ -89.18091418, 13.6537137, 752.36 ], [ -89.18087202, 13.65362323, 752.37 ], [ -89.18082442, 13.65352228, 752.56 ], [ -89.18079411, 13.65343209, 752.41 ], [ -89.18076884, 13.65331902, 753.35 ], [ -89.18076623, 13.65322341, 754.05 ], [ -89.18077086, 13.65313292, 755.49 ], [ -89.1807698, 13.65303312, 757.27 ], [ -89.1807634, 13.65293476, 757.39 ], [ -89.18076185, 13.65283753, 757.6 ], [ -89.1807621, 13.65272444, 758.47 ], [ -89.1807468, 13.65261868, 758.67 ], [ -89.18073636, 13.6525157, 758.69 ], [ -89.18073662, 13.65241533, 758.61 ], [ -89.18072602, 13.65231154, 757.85 ], [ -89.18069389, 13.65221104, 758.31 ], [ -89.1806621, 13.65210164, 759.32 ], [ -89.180631, 13.65198827, 760.8 ], [ -89.18061623, 13.65188542, 761.43 ], [ -89.18060051, 13.6517944, 761.7 ], [ -89.1805718, 13.65168628, 761.22 ], [ -89.18055559, 13.65158413, 761.24 ], [ -89.18053863, 13.65148003, 762.42 ], [ -89.18052657, 13.65137342, 762.39 ], [ -89.1805192, 13.65125952, 762.27 ], [ -89.18051492, 13.6511576, 762.21 ], [ -89.18048813, 13.65104324, 763.34 ], [ -89.18044893, 13.65091715, 764.21 ], [ -89.18041912, 13.6507922, 766.53 ], [ -89.18038708, 13.65068502, 767.4 ], [ -89.18037709, 13.6505619, 768.86 ], [ -89.1803569, 13.65044073, 769.73 ], [ -89.18032989, 13.65034052, 769.94 ], [ -89.18025617, 13.65025792, 769.86 ], [ -89.18026365, 13.65015378, 768.81 ], [ -89.18024985, 13.65003654, 770.74 ], [ -89.18022685, 13.64994122, 771.8 ] ] ] } },
{ "type": "Feature", "properties": { "fid": 6, "name": "7a avenida colonia santa maria", "src": "Registrado con Geo Tracker para Android de Ilya Bogdanovich", "link1_href": "https://play.google.com/store/apps/details?id=com.ilyabogdanovich.geotracker", "geotracker_meta": "        <geotracker:length>76.45</geotracker:length>        <geotracker:duration>61694</geotracker:duration>        <geotracker:creationtime>2026-06-15T20:01:24Z</geotracker:creationtime>        <geotracker:activity>0</geotracker:activity>      ", "layer": "7a_avenida_colonia_santa_maria — tracks", "path": "C:\\Users\\AMSSS-INNOVACION\\OneDrive\\Imágenes\\Escritorio\\sss\\Levantamiento de calles SSS\\Levantamientos San Marcos-20260616T165238Z-3-001\\Levantamientos San Marcos\\15-06-2026\\7a_avenida_colonia_santa_maria.gpx|layername=tracks", "Estado": null, "img": null, "img2": null }, "geometry": { "type": "MultiLineString", "coordinates": [ [ [ -89.17143804, 13.65304188, 801.43 ], [ -89.17148689, 13.65295956, 801.63 ], [ -89.17155155, 13.65288608, 801.9 ], [ -89.17160888, 13.65280818, 802.75 ], [ -89.17165693, 13.65272038, 803.92 ], [ -89.17169373, 13.6526327, 803.94 ], [ -89.17175114, 13.65254653, 804.52 ], [ -89.17181801, 13.6524635, 805.74 ] ] ] } },
{ "type": "Feature", "properties": { "fid": 7, "name": "Adoquin", "src": "Registrado con Geo Tracker para Android de Ilya Bogdanovich", "link1_href": "https://play.google.com/store/apps/details?id=com.ilyabogdanovich.geotracker", "geotracker_meta": "        <geotracker:length>204.22</geotracker:length>        <geotracker:duration>77065</geotracker:duration>        <geotracker:creationtime>2026-06-15T17:38:02Z</geotracker:creationtime>        <geotracker:activity>0</geotracker:activity>      ", "layer": "Adoquin — tracks", "path": "C:\\Users\\AMSSS-INNOVACION\\OneDrive\\Imágenes\\Escritorio\\sss\\Levantamiento de calles SSS\\Levantamientos San Marcos-20260616T165238Z-3-001\\Levantamientos San Marcos\\15-06-2026\\Adoquin.gpx|layername=tracks", "Estado": "Adoquin", "img": null, "img2": null }, "geometry": { "type": "MultiLineString", "coordinates": [ [ [ -89.16668882, 13.65386646, 795.81 ], [ -89.16677523, 13.65391326, 795.54 ], [ -89.16688141, 13.65393213, 799.42 ], [ -89.16698594, 13.65395682, 801.62 ], [ -89.16709632, 13.65398838, 803.84 ], [ -89.16719908, 13.65399701, 804.25 ], [ -89.16729674, 13.65396638, 803.74 ], [ -89.16737528, 13.65388015, 805.01 ], [ -89.16743436, 13.65380712, 805.78 ], [ -89.16748798, 13.65372986, 806.7 ], [ -89.16753343, 13.65364811, 807.61 ], [ -89.1675976, 13.65356129, 808.9 ], [ -89.16764873, 13.65346775, 810.19 ], [ -89.16766845, 13.65337367, 811.84 ], [ -89.16767041, 13.65328197, 812.96 ], [ -89.16767523, 13.6531892, 813.9 ], [ -89.16769237, 13.65307253, 814.56 ], [ -89.16770549, 13.65295429, 814.59 ], [ -89.16772282, 13.65285641, 814.67 ] ], [ [ -89.16713196, 13.65397383, 804.47 ] ] ] } },
{ "type": "Feature", "properties": { "fid": 8, "name": "Adoquin, avenida atlántida los alpes 1", "src": "Registrado con Geo Tracker para Android de Ilya Bogdanovich", "link1_href": "https://play.google.com/store/apps/details?id=com.ilyabogdanovich.geotracker", "geotracker_meta": "        <geotracker:length>113.65</geotracker:length>        <geotracker:duration>248639</geotracker:duration>        <geotracker:creationtime>2026-06-15T16:46:21Z</geotracker:creationtime>        <geotracker:activity>0</geotracker:activity>      ", "layer": "Adoquin,_avenida_atlántida_los_alpes_1 — tracks", "path": "C:\\Users\\AMSSS-INNOVACION\\OneDrive\\Imágenes\\Escritorio\\sss\\Levantamiento de calles SSS\\Levantamientos San Marcos-20260616T165238Z-3-001\\Levantamientos San Marcos\\15-06-2026\\Adoquin,_avenida_atlántida_los_alpes_1.gpx|layername=tracks", "Estado": "Adoquin", "img": null, "img2": null }, "geometry": { "type": "MultiLineString", "coordinates": [ [ [ -89.16960694, 13.65727333, 821.76 ], [ -89.1695061, 13.6572973, 820.5 ], [ -89.16940349, 13.65732182, 822.0 ], [ -89.16929693, 13.65733579, 821.21 ], [ -89.16919443, 13.65736706, 822.9 ], [ -89.16911862, 13.6574249, 823.96 ], [ -89.16904607, 13.65748847, 825.66 ], [ -89.16902206, 13.65749994, 824.97 ], [ -89.16895105, 13.65756378, 826.5 ], [ -89.16889292, 13.65763979, 826.4 ], [ -89.16882663, 13.65771765, 828.7 ], [ -89.16873849, 13.65777992, 827.57 ] ] ] } },
{ "type": "Feature", "properties": { "fid": 9, "name": "Adoquin, calle principal colonia el milagro ", "src": "Registrado con Geo Tracker para Android de Ilya Bogdanovich", "link1_href": "https://play.google.com/store/apps/details?id=com.ilyabogdanovich.geotracker", "geotracker_meta": "        <geotracker:length>88.31</geotracker:length>        <geotracker:duration>42042</geotracker:duration>        <geotracker:creationtime>2026-06-15T15:55:54Z</geotracker:creationtime>        <geotracker:activity>0</geotracker:activity>      ", "layer": "Adoquin,_calle_principal_colonia_el_milagro — tracks", "path": "C:\\Users\\AMSSS-INNOVACION\\OneDrive\\Imágenes\\Escritorio\\sss\\Levantamiento de calles SSS\\Levantamientos San Marcos-20260616T165238Z-3-001\\Levantamientos San Marcos\\15-06-2026\\Adoquin,_calle_principal_colonia_el_milagro.gpx|layername=tracks", "Estado": "Adoquin", "img": null, "img2": null }, "geometry": { "type": "MultiLineString", "coordinates": [ [ [ -89.18182415, 13.66438984, 736.13 ], [ -89.18182294, 13.66428508, 736.88 ], [ -89.18182833, 13.66418837, 738.29 ], [ -89.18183685, 13.66409414, 738.47 ], [ -89.18185009, 13.6640018, 736.61 ], [ -89.18186824, 13.66388509, 736.49 ], [ -89.18188296, 13.66379415, 735.45 ], [ -89.1818984, 13.66369221, 734.07 ], [ -89.18191365, 13.66359779, 733.61 ] ] ] } },
{ "type": "Feature", "properties": { "fid": 10, "name": "Adoquin, calle principal de colonia buenos aires", "src": "Registrado con Geo Tracker para Android de Ilya Bogdanovich", "link1_href": "https://play.google.com/store/apps/details?id=com.ilyabogdanovich.geotracker", "geotracker_meta": "        <geotracker:length>121.1</geotracker:length>        <geotracker:duration>66055</geotracker:duration>        <geotracker:creationtime>2026-06-15T17:29:11Z</geotracker:creationtime>        <geotracker:activity>0</geotracker:activity>      ", "layer": "Adoquin,_calle_principal_de_colonia_buenos_aires — tracks", "path": "C:\\Users\\AMSSS-INNOVACION\\OneDrive\\Imágenes\\Escritorio\\sss\\Levantamiento de calles SSS\\Levantamientos San Marcos-20260616T165238Z-3-001\\Levantamientos San Marcos\\15-06-2026\\Adoquin,_calle_principal_de_colonia_buenos_aires.gpx|layername=tracks", "Estado": "Adoquin", "img": null, "img2": null }, "geometry": { "type": "MultiLineString", "coordinates": [ [ [ -89.16597224, 13.65690275, 804.91 ], [ -89.16594538, 13.65680872, 804.11 ], [ -89.16596066, 13.65670661, 802.97 ], [ -89.16596859, 13.65660954, 801.81 ], [ -89.1659701, 13.65651248, 800.3 ], [ -89.16598592, 13.65641763, 800.17 ], [ -89.16599668, 13.65630593, 799.43 ], [ -89.16601583, 13.65621715, 798.17 ], [ -89.16602313, 13.6561168, 798.22 ], [ -89.16603716, 13.65602694, 796.93 ], [ -89.16605257, 13.65592998, 797.08 ], [ -89.16607795, 13.65582212, 796.64 ] ] ] } },
{ "type": "Feature", "properties": { "fid": 11, "name": "Adoquinado,  calle principal de las brisas de san marcos", "src": "Registrado con Geo Tracker para Android de Ilya Bogdanovich", "link1_href": "https://play.google.com/store/apps/details?id=com.ilyabogdanovich.geotracker", "geotracker_meta": "        <geotracker:length>256.92</geotracker:length>        <geotracker:duration>146129</geotracker:duration>        <geotracker:creationtime>2026-06-15T20:44:43Z</geotracker:creationtime>        <geotracker:activity>0</geotracker:activity>      ", "layer": "Adoquinado,__calle_principal_de_las_brisas_de_san_marcos — tracks", "path": "C:\\Users\\AMSSS-INNOVACION\\OneDrive\\Imágenes\\Escritorio\\sss\\Levantamiento de calles SSS\\Levantamientos San Marcos-20260616T165238Z-3-001\\Levantamientos San Marcos\\15-06-2026\\Adoquinado,__calle_principal_de_las_brisas_de_san_marcos.gpx|layername=tracks", "Estado": "Adoquin", "img": null, "img2": null }, "geometry": { "type": "MultiLineString", "coordinates": [ [ [ -89.17944237, 13.65541904, 754.57 ], [ -89.17933535, 13.65542488, 753.65 ], [ -89.17923114, 13.65543636, 753.83 ], [ -89.17912886, 13.65543255, 755.26 ], [ -89.17901431, 13.65541199, 752.99 ], [ -89.17892014, 13.65541137, 754.77 ], [ -89.17881936, 13.65539103, 756.31 ], [ -89.17872244, 13.6553739, 758.18 ], [ -89.17860858, 13.65536683, 758.15 ], [ -89.17850856, 13.65535029, 757.81 ], [ -89.17841403, 13.65535745, 754.74 ], [ -89.1783168, 13.65534935, 753.77 ], [ -89.1782084, 13.65535219, 754.46 ], [ -89.17811438, 13.65533007, 753.83 ], [ -89.17801074, 13.65532509, 753.07 ], [ -89.17791139, 13.6553074, 754.73 ], [ -89.17779779, 13.65529799, 755.2 ], [ -89.17769209, 13.65529382, 755.74 ], [ -89.17759854, 13.6552906, 755.59 ], [ -89.17748985, 13.65529753, 755.52 ], [ -89.177422, 13.65537774, 756.79 ], [ -89.17737923, 13.65546341, 760.56 ], [ -89.17732818, 13.65555384, 763.01 ], [ -89.17728828, 13.65564194, 764.32 ] ] ] } },
{ "type": "Feature", "properties": { "fid": 12, "name": "Asfalto calle David posada ", "src": "Registrado con Geo Tracker para Android de Ilya Bogdanovich", "link1_href": "https://play.google.com/store/apps/details?id=com.ilyabogdanovich.geotracker", "geotracker_meta": "        <geotracker:length>235.11</geotracker:length>        <geotracker:duration>96083</geotracker:duration>        <geotracker:creationtime>2026-06-15T21:04:19Z</geotracker:creationtime>        <geotracker:activity>0</geotracker:activity>      ", "layer": "Asfalto_calle_David_posada — tracks", "path": "C:\\Users\\AMSSS-INNOVACION\\OneDrive\\Imágenes\\Escritorio\\sss\\Levantamiento de calles SSS\\Levantamientos San Marcos-20260616T165238Z-3-001\\Levantamientos San Marcos\\15-06-2026\\Asfalto_calle_David_posada.gpx|layername=tracks", "Estado": "Adoquin", "img": null, "img2": null }, "geometry": { "type": "MultiLineString", "coordinates": [ [ [ -89.17834461, 13.65406693, 756.52 ], [ -89.17843881, 13.65413689, 756.55 ], [ -89.17853594, 13.65415904, 756.45 ], [ -89.17862852, 13.65418224, 756.93 ], [ -89.17872183, 13.65421392, 757.46 ], [ -89.17882067, 13.65424651, 756.68 ], [ -89.17892634, 13.65427672, 756.43 ], [ -89.17901568, 13.65430469, 755.15 ], [ -89.17911702, 13.65435366, 755.79 ], [ -89.17921045, 13.65438765, 753.54 ], [ -89.17930635, 13.65441287, 751.94 ], [ -89.17941548, 13.65441816, 750.65 ], [ -89.17954528, 13.65444538, 751.86 ], [ -89.17964291, 13.65447179, 751.16 ], [ -89.17974347, 13.6545048, 751.84 ], [ -89.17983234, 13.65453116, 751.71 ], [ -89.17992066, 13.65456409, 751.48 ], [ -89.18001139, 13.6545825, 752.95 ], [ -89.18010656, 13.65461696, 752.42 ], [ -89.18019555, 13.65466997, 749.82 ], [ -89.18028351, 13.65473074, 749.47 ], [ -89.18036419, 13.65478447, 749.55 ] ] ] } },
{ "type": "Feature", "properties": { "fid": 13, "name": "Asfalto, avenida colonia, editar parte de adoquines ", "src": "Registrado con Geo Tracker para Android de Ilya Bogdanovich", "link1_href": "https://play.google.com/store/apps/details?id=com.ilyabogdanovich.geotracker", "geotracker_meta": "        <geotracker:length>145.22</geotracker:length>        <geotracker:duration>139231</geotracker:duration>        <geotracker:creationtime>2026-06-15T21:07:23Z</geotracker:creationtime>        <geotracker:activity>0</geotracker:activity>      ", "layer": "Asfalto,_avenida_colonia,_editar_parte_de_adoquines — tracks", "path": "C:\\Users\\AMSSS-INNOVACION\\OneDrive\\Imágenes\\Escritorio\\sss\\Levantamiento de calles SSS\\Levantamientos San Marcos-20260616T165238Z-3-001\\Levantamientos San Marcos\\15-06-2026\\Asfalto,_avenida_colonia,_editar_parte_de_adoquines.gpx|layername=tracks", "Estado": "Asfalto", "img": "C:\\Users\\AMSSS-INNOVACION\\OneDrive\\Imágenes\\Escritorio\\sss\\Levantamiento de calles SSS\\Levantamientos San Marcos-20260616T165238Z-3-001\\Fotos de calles\\avenida colonial.jpg", "img2": null }, "geometry": { "type": "MultiLineString", "coordinates": [ [ [ -89.18045027, 13.65495639, 749.55 ], [ -89.18046422, 13.65504587, 749.52 ], [ -89.18057196, 13.65506768, 745.97 ], [ -89.18067864, 13.65505871, 743.49 ], [ -89.18078967, 13.65502364, 744.15 ], [ -89.18088145, 13.65500331, 743.74 ], [ -89.18098811, 13.65497636, 740.69 ], [ -89.18108943, 13.65493952, 741.24 ], [ -89.18118944, 13.6549678, 741.09 ], [ -89.18127864, 13.6549988, 741.24 ], [ -89.18138982, 13.65501952, 740.28 ], [ -89.18148515, 13.65502293, 739.89 ], [ -89.18158017, 13.65502668, 738.81 ], [ -89.18168111, 13.65503276, 738.64 ] ] ] } },
{ "type": "Feature", "properties": { "fid": 14, "name": "Asfalto, avenida condor", "src": "Registrado con Geo Tracker para Android de Ilya Bogdanovich", "link1_href": "https://play.google.com/store/apps/details?id=com.ilyabogdanovich.geotracker", "geotracker_meta": "        <geotracker:length>47.59</geotracker:length>        <geotracker:duration>22017</geotracker:duration>        <geotracker:creationtime>2026-06-15T21:40:49Z</geotracker:creationtime>        <geotracker:activity>0</geotracker:activity>      ", "layer": "Asfalto,_avenida_condor — tracks", "path": "C:\\Users\\AMSSS-INNOVACION\\OneDrive\\Imágenes\\Escritorio\\sss\\Levantamiento de calles SSS\\Levantamientos San Marcos-20260616T165238Z-3-001\\Levantamientos San Marcos\\15-06-2026\\Asfalto,_avenida_condor.gpx|layername=tracks", "Estado": "Asfalto", "img": null, "img2": null }, "geometry": { "type": "MultiLineString", "coordinates": [ [ [ -89.18120556, 13.65068456, 760.48 ], [ -89.18124907, 13.65079112, 758.11 ], [ -89.18127145, 13.65088397, 756.15 ], [ -89.18129192, 13.65100484, 753.27 ], [ -89.1813212, 13.65109809, 752.72 ] ] ] } },
{ "type": "Feature", "properties": { "fid": 15, "name": "Asfalto, calle el carmen 1", "src": "Registrado con Geo Tracker para Android de Ilya Bogdanovich", "link1_href": "https://play.google.com/store/apps/details?id=com.ilyabogdanovich.geotracker", "geotracker_meta": "        <geotracker:length>65.51</geotracker:length>        <geotracker:duration>108803</geotracker:duration>        <geotracker:creationtime>2026-06-15T20:27:55Z</geotracker:creationtime>        <geotracker:activity>0</geotracker:activity>      ", "layer": "Asfalto,_calle_el_carmen_1 — tracks", "path": "C:\\Users\\AMSSS-INNOVACION\\OneDrive\\Imágenes\\Escritorio\\sss\\Levantamiento de calles SSS\\Levantamientos San Marcos-20260616T165238Z-3-001\\Levantamientos San Marcos\\15-06-2026\\Asfalto,_calle_el_carmen_1.gpx|layername=tracks", "Estado": "Asfalto", "img": null, "img2": null }, "geometry": { "type": "MultiLineString", "coordinates": [ [ [ -89.17330601, 13.65423419, 788.88 ], [ -89.17323395, 13.65432029, 787.4 ], [ -89.17319591, 13.65440292, 786.32 ], [ -89.17316063, 13.65448853, 786.66 ], [ -89.17312077, 13.65457524, 784.53 ], [ -89.17308241, 13.65466098, 784.9 ], [ -89.173028, 13.65475649, 783.37 ] ] ] } },
{ "type": "Feature", "properties": { "fid": 16, "name": "Calle México, colonia santa maría, asfalto ", "src": "Registrado con Geo Tracker para Android de Ilya Bogdanovich", "link1_href": "https://play.google.com/store/apps/details?id=com.ilyabogdanovich.geotracker", "geotracker_meta": "        <geotracker:length>140.76</geotracker:length>        <geotracker:duration>242715</geotracker:duration>        <geotracker:creationtime>2026-06-15T17:48:53Z</geotracker:creationtime>        <geotracker:activity>0</geotracker:activity>      ", "layer": "Calle_México,_colonia_santa_maría,_asfalto — tracks", "path": "C:\\Users\\AMSSS-INNOVACION\\OneDrive\\Imágenes\\Escritorio\\sss\\Levantamiento de calles SSS\\Levantamientos San Marcos-20260616T165238Z-3-001\\Levantamientos San Marcos\\15-06-2026\\Calle_México,_colonia_santa_maría,_asfalto.gpx|layername=tracks", "Estado": "Asfalto", "img": null, "img2": null }, "geometry": { "type": "MultiLineString", "coordinates": [ [ [ -89.17147856, 13.65548006, 797.83 ], [ -89.17157417, 13.65549792, 797.77 ], [ -89.17167379, 13.65550896, 798.33 ], [ -89.17176957, 13.65551784, 798.12 ], [ -89.17187598, 13.65553813, 795.55 ], [ -89.17196888, 13.65555383, 797.29 ], [ -89.17206894, 13.65554538, 794.8 ], [ -89.17216152, 13.65555893, 795.82 ], [ -89.17226084, 13.65557553, 794.27 ], [ -89.17235763, 13.65559794, 793.31 ], [ -89.17246035, 13.65560095, 791.86 ], [ -89.17256021, 13.65561091, 789.81 ], [ -89.17265869, 13.65562127, 790.23 ], [ -89.17276631, 13.65563105, 789.4 ] ] ] } },
{ "type": "Feature", "properties": { "fid": 17, "name": "Calle principal altos de San marcos miselaneo", "src": "Registrado con Geo Tracker para Android de Ilya Bogdanovich", "link1_href": "https://play.google.com/store/apps/details?id=com.ilyabogdanovich.geotracker", "geotracker_meta": "        <geotracker:length>195.05</geotracker:length>        <geotracker:duration>131162</geotracker:duration>        <geotracker:creationtime>2026-06-15T15:17:09Z</geotracker:creationtime>        <geotracker:activity>0</geotracker:activity>      ", "layer": "Calle_principal_altos_de_San_marcos_miselaneo — tracks", "path": "C:\\Users\\AMSSS-INNOVACION\\OneDrive\\Imágenes\\Escritorio\\sss\\Levantamiento de calles SSS\\Levantamientos San Marcos-20260616T165238Z-3-001\\Levantamientos San Marcos\\15-06-2026\\Calle_principal_altos_de_San_marcos_miselaneo.gpx|layername=tracks", "Estado": "Miselaneo", "img": "C:\\Users\\AMSSS-INNOVACION\\OneDrive\\Imágenes\\Escritorio\\sss\\Levantamiento de calles SSS\\Levantamientos San Marcos-20260616T165238Z-3-001\\Fotos de calles\\Calle principa altos de san marcos1.jpg", "img2": null }, "geometry": { "type": "MultiLineString", "coordinates": [ [ [ -89.187750435920904, 13.670205177348242, 724.65 ], [ -89.187701820020592, 13.670053400878997, 728.98 ], [ -89.187684626592471, 13.669919114276327, 733.05 ], [ -89.187634824938499, 13.669710421631114, 735.29 ], [ -89.187529292862223, 13.669742436980096, 736.16 ], [ -89.187437989829945, 13.669792238634066, 739.66 ], [ -89.187365658856322, 13.669845597549036, 742.51 ], [ -89.187285620483891, 13.669920003591574, 744.83 ], [ -89.18722619, 13.67001058, 746.08 ], [ -89.18716209, 13.67007997, 745.86 ], [ -89.18708828, 13.6701376, 746.46 ], [ -89.18697325, 13.67018152, 749.02 ], [ -89.18686803, 13.67021586, 751.74 ], [ -89.18675897, 13.67026878, 754.1 ], [ -89.18665525, 13.67032585, 757.66 ], [ -89.18654934, 13.67037121, 761.32 ], [ -89.18646329, 13.67041217, 763.07 ], [ -89.18647355, 13.67050438, 766.39 ] ] ] } },
{ "type": "Feature", "properties": { "fid": 18, "name": "Calle principal buenos aires", "src": "Registrado con Geo Tracker para Android de Ilya Bogdanovich", "link1_href": "https://play.google.com/store/apps/details?id=com.ilyabogdanovich.geotracker", "geotracker_meta": "        <geotracker:length>83.21</geotracker:length>        <geotracker:duration>41035</geotracker:duration>        <geotracker:creationtime>2026-06-15T17:30:52Z</geotracker:creationtime>        <geotracker:activity>0</geotracker:activity>      ", "layer": "Calle_principal_buenos_aires — tracks", "path": "C:\\Users\\AMSSS-INNOVACION\\OneDrive\\Imágenes\\Escritorio\\sss\\Levantamiento de calles SSS\\Levantamientos San Marcos-20260616T165238Z-3-001\\Levantamientos San Marcos\\15-06-2026\\Calle_principal_buenos_aires.gpx|layername=tracks", "Estado": "Adoquin", "img": null, "img2": null }, "geometry": { "type": "MultiLineString", "coordinates": [ [ [ -89.166094, 13.6557353, 797.32 ], [ -89.16611869, 13.65561752, 795.84 ], [ -89.16615103, 13.65551295, 795.04 ], [ -89.1661816, 13.65540952, 796.31 ], [ -89.16620234, 13.65529985, 797.55 ], [ -89.16622261, 13.65519538, 796.38 ], [ -89.16625531, 13.65510084, 799.2 ], [ -89.16628568, 13.65500818, 798.88 ] ] ] } },
{ "type": "Feature", "properties": { "fid": 19, "name": "Calle principal los Alpes, asfalto", "src": "Registrado con Geo Tracker para Android de Ilya Bogdanovich", "link1_href": "https://play.google.com/store/apps/details?id=com.ilyabogdanovich.geotracker", "geotracker_meta": "        <geotracker:length>580.4</geotracker:length>        <geotracker:duration>322046</geotracker:duration>        <geotracker:creationtime>2026-06-15T16:39:18Z</geotracker:creationtime>        <geotracker:activity>0</geotracker:activity>      ", "layer": "Calle_principal_los_Alpes,_asfalto — tracks", "path": "C:\\Users\\AMSSS-INNOVACION\\OneDrive\\Imágenes\\Escritorio\\sss\\Levantamiento de calles SSS\\Levantamientos San Marcos-20260616T165238Z-3-001\\Levantamientos San Marcos\\15-06-2026\\Calle_principal_los_Alpes,_asfalto.gpx|layername=tracks", "Estado": "Asfalto", "img": null, "img2": null }, "geometry": { "type": "MultiLineString", "coordinates": [ [ [ -89.17188996, 13.6561881, 796.74 ], [ -89.17187293, 13.65628193, 796.88 ], [ -89.17185368, 13.65638969, 798.55 ], [ -89.1718319, 13.65648072, 800.28 ], [ -89.17180644, 13.65660721, 802.46 ], [ -89.17178522, 13.6567406, 804.94 ], [ -89.17177165, 13.65683066, 806.55 ], [ -89.17174132, 13.65694799, 808.64 ], [ -89.17172714, 13.65703846, 810.39 ], [ -89.17170753, 13.65714771, 811.97 ], [ -89.17168343, 13.65725108, 812.09 ], [ -89.17168013, 13.65726321, 814.3 ], [ -89.17165219, 13.6573534, 815.36 ], [ -89.17160015, 13.65748387, 815.61 ], [ -89.17157308, 13.65759744, 817.91 ], [ -89.17160066, 13.65768868, 817.36 ], [ -89.17170074, 13.65771425, 815.4 ], [ -89.17183926, 13.65772517, 816.5 ], [ -89.17194374, 13.6577426, 817.19 ], [ -89.17205154, 13.65775831, 817.03 ], [ -89.17214823, 13.65777202, 817.93 ], [ -89.1722416, 13.65777964, 818.03 ], [ -89.17233687, 13.65778046, 816.62 ], [ -89.17243014, 13.65778763, 816.11 ], [ -89.17255502, 13.65778919, 813.69 ], [ -89.17266537, 13.65780456, 812.61 ], [ -89.17276128, 13.65781557, 809.85 ], [ -89.17286189, 13.65782007, 809.09 ], [ -89.17296331, 13.65782031, 808.94 ], [ -89.17305109, 13.65785649, 806.3 ], [ -89.17309482, 13.65794449, 805.84 ], [ -89.17311658, 13.6580425, 806.94 ], [ -89.17317831, 13.65811364, 810.36 ] ], [ [ -89.17309966, 13.65778139, 810.99 ], [ -89.1730954, 13.65768877, 805.61 ], [ -89.17306652, 13.65758374, 804.53 ], [ -89.17305454, 13.65749114, 802.88 ], [ -89.17305638, 13.65740042, 800.96 ], [ -89.17305931, 13.65729939, 801.31 ], [ -89.17304343, 13.65717825, 800.48 ], [ -89.1730151, 13.65709137, 799.05 ], [ -89.17297596, 13.65699279, 798.1 ], [ -89.17294337, 13.65690501, 796.22 ], [ -89.17291874, 13.65678891, 795.33 ], [ -89.17287958, 13.65667131, 793.62 ], [ -89.17285398, 13.65658364, 793.69 ], [ -89.17281493, 13.65647422, 787.78 ], [ -89.17280593, 13.65635175, 787.08 ], [ -89.17282904, 13.6562223, 786.22 ] ] ] } },
{ "type": "Feature", "properties": { "fid": 20, "name": "Calle principal los andes 2", "src": "Registrado con Geo Tracker para Android de Ilya Bogdanovich", "link1_href": "https://play.google.com/store/apps/details?id=com.ilyabogdanovich.geotracker", "geotracker_meta": "        <geotracker:length>249.54</geotracker:length>        <geotracker:duration>189828</geotracker:duration>        <geotracker:creationtime>2026-06-15T15:43:07Z</geotracker:creationtime>        <geotracker:activity>0</geotracker:activity>      ", "layer": "Calle_principal_los_andes_2 — tracks", "path": "C:\\Users\\AMSSS-INNOVACION\\OneDrive\\Imágenes\\Escritorio\\sss\\Levantamiento de calles SSS\\Levantamientos San Marcos-20260616T165238Z-3-001\\Levantamientos San Marcos\\15-06-2026\\Calle_principal_los_andes_2.gpx|layername=tracks", "Estado": "Pavimento", "img": "C:\\Users\\AMSSS-INNOVACION\\OneDrive\\Imágenes\\Escritorio\\sss\\Levantamiento de calles SSS\\Levantamientos San Marcos-20260616T165238Z-3-001\\Fotos de calles\\Calle principal los andes 2.jpg", "img2": "C:\\Users\\AMSSS-INNOVACION\\OneDrive\\Imágenes\\Escritorio\\sss\\Levantamiento de calles SSS\\Levantamientos San Marcos-20260616T165238Z-3-001\\Fotos de calles\\Final calle principal los andes 2.jpg" }, "geometry": { "type": "MultiLineString", "coordinates": [ [ [ -89.18130576, 13.67159884, 853.67 ], [ -89.18140402, 13.67158965, 850.03 ], [ -89.18149833, 13.67156626, 847.86 ], [ -89.18161782, 13.67155574, 843.28 ], [ -89.18172566, 13.67154006, 843.39 ], [ -89.18182321, 13.67151753, 844.87 ], [ -89.18194783, 13.67150096, 843.98 ], [ -89.18203839, 13.67147075, 843.59 ], [ -89.18212622, 13.67143826, 845.17 ], [ -89.18222055, 13.67141346, 842.67 ], [ -89.18231659, 13.67139591, 840.75 ], [ -89.18242613, 13.67136252, 840.2 ], [ -89.1825303, 13.67132486, 836.03 ], [ -89.18263083, 13.67131388, 833.69 ], [ -89.18273796, 13.67129038, 832.45 ], [ -89.18284313, 13.67126701, 828.79 ], [ -89.18294603, 13.67122862, 827.15 ], [ -89.18305114, 13.67121931, 825.55 ], [ -89.18314296, 13.67120206, 822.43 ], [ -89.18324123, 13.67119237, 818.03 ], [ -89.18342993, 13.67113879, 812.43 ], [ -89.18355029, 13.67112212, 810.35 ] ] ] } },
{ "type": "Feature", "properties": { "fid": 21, "name": "Calle principal santa fe, piedra", "src": "Registrado con Geo Tracker para Android de Ilya Bogdanovich", "link1_href": "https://play.google.com/store/apps/details?id=com.ilyabogdanovich.geotracker", "geotracker_meta": "        <geotracker:length>54.57</geotracker:length>        <geotracker:duration>50047</geotracker:duration>        <geotracker:creationtime>2026-06-15T16:22:53Z</geotracker:creationtime>        <geotracker:activity>0</geotracker:activity>      ", "layer": "Calle_principal_santa_fe,_piedra — tracks", "path": "C:\\Users\\AMSSS-INNOVACION\\OneDrive\\Imágenes\\Escritorio\\sss\\Levantamiento de calles SSS\\Levantamientos San Marcos-20260616T165238Z-3-001\\Levantamientos San Marcos\\15-06-2026\\Calle_principal_santa_fe,_piedra.gpx|layername=tracks", "Estado": "Piedra", "img": null, "img2": null }, "geometry": { "type": "MultiLineString", "coordinates": [ [ [ -89.17587719, 13.66025756, 891.87 ], [ -89.17584555, 13.66016439, 889.48 ], [ -89.17581553, 13.6600663, 883.22 ], [ -89.17577163, 13.65997487, 879.93 ], [ -89.17574753, 13.65987796, 876.75 ], [ -89.17574016, 13.65978634, 873.3 ] ] ] } },
{ "type": "Feature", "properties": { "fid": 22, "name": "Miselaneo calle principal de Altos de San marcos ", "src": "Registrado con Geo Tracker para Android de Ilya Bogdanovich", "link1_href": "https://play.google.com/store/apps/details?id=com.ilyabogdanovich.geotracker", "geotracker_meta": "        <geotracker:length>63.83</geotracker:length>        <geotracker:duration>146382</geotracker:duration>        <geotracker:creationtime>2026-06-15T15:12:24Z</geotracker:creationtime>        <geotracker:activity>0</geotracker:activity>      ", "layer": "Miselaneo_calle_principal_de_Altos_de_San_marcos — tracks", "path": "C:\\Users\\AMSSS-INNOVACION\\OneDrive\\Imágenes\\Escritorio\\sss\\Levantamiento de calles SSS\\Levantamientos San Marcos-20260616T165238Z-3-001\\Levantamientos San Marcos\\15-06-2026\\Miselaneo_calle_principal_de_Altos_de_San_marcos.gpx|layername=tracks", "Estado": "Miselaneo", "img": "C:\\Users\\AMSSS-INNOVACION\\OneDrive\\Imágenes\\Escritorio\\sss\\Levantamiento de calles SSS\\Levantamientos San Marcos-20260616T165238Z-3-001\\Fotos de calles\\Altos de San Marcos.jpg", "img2": "C:\\Users\\AMSSS-INNOVACION\\OneDrive\\Imágenes\\Escritorio\\sss\\Levantamiento de calles SSS\\Levantamientos San Marcos-20260616T165238Z-3-001\\Fotos de calles\\Altos de San Marcos(2).jpg" }, "geometry": { "type": "MultiLineString", "coordinates": [ [ [ -89.188101601869121, 13.670105997438505, 714.35 ], [ -89.1879954, 13.67014875, 718.92 ], [ -89.187896071233681, 13.670169237634024, 724.72 ], [ -89.187816032861221, 13.67019196457929, 729.25 ], [ -89.18772902, 13.67022274, 729.39 ], [ -89.187639157939387, 13.670243347238149, 731.24 ], [ -89.18755099, 13.67027123, 732.93 ] ] ] } },
{ "type": "Feature", "properties": { "fid": 23, "name": "Miselaneo, calle al cerro", "src": "Registrado con Geo Tracker para Android de Ilya Bogdanovich", "link1_href": "https://play.google.com/store/apps/details?id=com.ilyabogdanovich.geotracker", "geotracker_meta": "        <geotracker:length>147.5</geotracker:length>        <geotracker:duration>101103</geotracker:duration>        <geotracker:creationtime>2026-06-15T15:25:21Z</geotracker:creationtime>        <geotracker:activity>0</geotracker:activity>      ", "layer": "Miselaneo,_calle_al_cerro — tracks", "path": "C:\\Users\\AMSSS-INNOVACION\\OneDrive\\Imágenes\\Escritorio\\sss\\Levantamiento de calles SSS\\Levantamientos San Marcos-20260616T165238Z-3-001\\Levantamientos San Marcos\\15-06-2026\\Miselaneo,_calle_al_cerro.gpx|layername=tracks", "Estado": "Miselaneo", "img": null, "img2": null }, "geometry": { "type": "MultiLineString", "coordinates": [ [ [ -89.18737633063931, 13.669814767953721, 743.34 ], [ -89.187306873565973, 13.669754314521995, 741.21 ], [ -89.18723023, 13.66967055, 741.34 ], [ -89.18716611, 13.6695967, 740.07 ], [ -89.18708453, 13.66952652, 738.45 ], [ -89.18701987, 13.66946084, 739.1 ], [ -89.18692545, 13.66946455, 738.66 ], [ -89.18681898, 13.66950361, 738.39 ], [ -89.18670884, 13.6695335, 738.46 ], [ -89.18661102, 13.66956415, 738.75 ], [ -89.18650916, 13.66961417, 738.18 ], [ -89.18640699, 13.66964578, 739.51 ], [ -89.18630089, 13.66968286, 738.06 ], [ -89.18620692, 13.66971701, 737.95 ] ] ] } },
{ "type": "Feature", "properties": { "fid": 24, "name": "Pasaje 4 colonia Galvez pavimento ", "src": "Registrado con Geo Tracker para Android de Ilya Bogdanovich", "link1_href": "https://play.google.com/store/apps/details?id=com.ilyabogdanovich.geotracker", "geotracker_meta": "        <geotracker:length>264.16</geotracker:length>        <geotracker:duration>155440</geotracker:duration>        <geotracker:creationtime>2026-06-15T17:13:56Z</geotracker:creationtime>        <geotracker:activity>0</geotracker:activity>      ", "layer": "Pasaje_4_colonia_Galvez_pavimento — tracks", "path": "C:\\Users\\AMSSS-INNOVACION\\OneDrive\\Imágenes\\Escritorio\\sss\\Levantamiento de calles SSS\\Levantamientos San Marcos-20260616T165238Z-3-001\\Levantamientos San Marcos\\15-06-2026\\Pasaje_4_colonia_Galvez_pavimento.gpx|layername=tracks", "Estado": "Pavimento", "img": null, "img2": null }, "geometry": { "type": "MultiLineString", "coordinates": [ [ [ -89.16256793, 13.65881334, 820.6 ], [ -89.16254221, 13.65891078, 820.92 ], [ -89.16251889, 13.65901645, 820.14 ], [ -89.16250429, 13.65911189, 820.9 ], [ -89.16250639, 13.65921773, 822.04 ], [ -89.16251135, 13.6593222, 822.23 ], [ -89.16251969, 13.65942757, 823.28 ], [ -89.16253721, 13.65952374, 824.65 ], [ -89.16255232, 13.65963272, 825.21 ], [ -89.16257142, 13.65972511, 825.34 ], [ -89.16260297, 13.65981693, 826.38 ], [ -89.16261549, 13.65991043, 825.02 ], [ -89.16262553, 13.66000075, 827.09 ], [ -89.16257173, 13.65992526, 828.31 ], [ -89.16262079, 13.66001421, 833.39 ], [ -89.16265704, 13.66011386, 837.61 ], [ -89.162691, 13.66019814, 838.86 ], [ -89.16273531, 13.66029243, 837.51 ], [ -89.16276461, 13.66038466, 838.12 ], [ -89.1628212, 13.66047347, 837.56 ], [ -89.16289299, 13.66056134, 838.27 ], [ -89.16295123, 13.66064166, 838.85 ], [ -89.16300023, 13.66071957, 841.62 ], [ -89.16305393, 13.660795, 842.88 ], [ -89.16313203, 13.66084922, 841.41 ] ] ] } },
{ "type": "Feature", "properties": { "fid": 25, "name": "Pasaje 4 colonia Galvez, pavimento ", "src": "Registrado con Geo Tracker para Android de Ilya Bogdanovich", "link1_href": "https://play.google.com/store/apps/details?id=com.ilyabogdanovich.geotracker", "geotracker_meta": "        <geotracker:length>66.58</geotracker:length>        <geotracker:duration>106995</geotracker:duration>        <geotracker:creationtime>2026-06-15T17:10:39Z</geotracker:creationtime>        <geotracker:activity>0</geotracker:activity>      ", "layer": "Pasaje_4_colonia_Galvez,_pavimento — tracks", "path": "C:\\Users\\AMSSS-INNOVACION\\OneDrive\\Imágenes\\Escritorio\\sss\\Levantamiento de calles SSS\\Levantamientos San Marcos-20260616T165238Z-3-001\\Levantamientos San Marcos\\15-06-2026\\Pasaje_4_colonia_Galvez,_pavimento.gpx|layername=tracks", "Estado": "Pavimento", "img": null, "img2": null }, "geometry": { "type": "MultiLineString", "coordinates": [ [ [ -89.16146618, 13.65823221, 806.43 ], [ -89.1615439, 13.65829986, 805.41 ], [ -89.16162123, 13.65835137, 807.89 ], [ -89.16171568, 13.65841588, 810.1 ], [ -89.16179276, 13.65847804, 812.72 ], [ -89.16188037, 13.65854182, 812.93 ], [ -89.16194721, 13.65860568, 814.91 ] ] ] } },
{ "type": "Feature", "properties": { "fid": 26, "name": "Pasaje 4 colonia Galvez, tierra", "src": "Registrado con Geo Tracker para Android de Ilya Bogdanovich", "link1_href": "https://play.google.com/store/apps/details?id=com.ilyabogdanovich.geotracker", "geotracker_meta": "        <geotracker:length>75.54</geotracker:length>        <geotracker:duration>46052</geotracker:duration>        <geotracker:creationtime>2026-06-15T17:12:32Z</geotracker:creationtime>        <geotracker:activity>0</geotracker:activity>      ", "layer": "Pasaje_4_colonia_Galvez,_tierra — tracks", "path": "C:\\Users\\AMSSS-INNOVACION\\OneDrive\\Imágenes\\Escritorio\\sss\\Levantamiento de calles SSS\\Levantamientos San Marcos-20260616T165238Z-3-001\\Levantamientos San Marcos\\15-06-2026\\Pasaje_4_colonia_Galvez,_tierra.gpx|layername=tracks", "Estado": "Tierra", "img": null, "img2": null }, "geometry": { "type": "MultiLineString", "coordinates": [ [ [ -89.16195261, 13.65861101, 815.44 ], [ -89.16204169, 13.65865493, 817.73 ], [ -89.16213653, 13.65865325, 819.92 ], [ -89.16223376, 13.65865243, 819.78 ], [ -89.16234097, 13.65864188, 820.62 ], [ -89.16243476, 13.658653, 820.38 ], [ -89.16253849, 13.65866415, 821.83 ], [ -89.162573, 13.65875572, 820.66 ] ] ] } },
{ "type": "Feature", "properties": { "fid": 27, "name": "Pavimento,  avenida condor", "src": "Registrado con Geo Tracker para Android de Ilya Bogdanovich", "link1_href": "https://play.google.com/store/apps/details?id=com.ilyabogdanovich.geotracker", "geotracker_meta": "        <geotracker:length>106.88</geotracker:length>        <geotracker:duration>130109</geotracker:duration>        <geotracker:creationtime>2026-06-15T21:37:55Z</geotracker:creationtime>        <geotracker:activity>0</geotracker:activity>      ", "layer": "Pavimento,__avenida_condor — tracks", "path": "C:\\Users\\AMSSS-INNOVACION\\OneDrive\\Imágenes\\Escritorio\\sss\\Levantamiento de calles SSS\\Levantamientos San Marcos-20260616T165238Z-3-001\\Levantamientos San Marcos\\15-06-2026\\Pavimento,__avenida_condor.gpx|layername=tracks", "Estado": "Pavimento", "img": null, "img2": null }, "geometry": { "type": "MultiLineString", "coordinates": [ [ [ -89.18093266, 13.64981082, 768.98 ], [ -89.18091274, 13.64990939, 768.91 ], [ -89.18091166, 13.65000405, 770.1 ], [ -89.18093738, 13.65009475, 767.1 ], [ -89.18095641, 13.6501899, 766.45 ], [ -89.18098293, 13.65028329, 765.09 ], [ -89.18101008, 13.65037753, 764.29 ], [ -89.18103866, 13.65047716, 764.55 ], [ -89.18105995, 13.65056804, 763.78 ], [ -89.18110403, 13.65064899, 764.35 ], [ -89.18120257, 13.65064311, 761.03 ] ] ] } },
{ "type": "Feature", "properties": { "fid": 28, "name": "Pavimento,  calle danubio", "src": "Registrado con Geo Tracker para Android de Ilya Bogdanovich", "link1_href": "https://play.google.com/store/apps/details?id=com.ilyabogdanovich.geotracker", "geotracker_meta": "        <geotracker:length>164.55</geotracker:length>        <geotracker:duration>155655</geotracker:duration>        <geotracker:creationtime>2026-06-15T21:33:54Z</geotracker:creationtime>        <geotracker:activity>0</geotracker:activity>      ", "layer": "Pavimento,__calle_danubio — tracks", "path": "C:\\Users\\AMSSS-INNOVACION\\OneDrive\\Imágenes\\Escritorio\\sss\\Levantamiento de calles SSS\\Levantamientos San Marcos-20260616T165238Z-3-001\\Levantamientos San Marcos\\15-06-2026\\Pavimento,__calle_danubio.gpx|layername=tracks", "Estado": "Pavimento", "img": "C:\\Users\\AMSSS-INNOVACION\\OneDrive\\Imágenes\\Escritorio\\sss\\Levantamiento de calles SSS\\Levantamientos San Marcos-20260616T165238Z-3-001\\Fotos de calles\\pasaje danubio3.jpg", "img2": null }, "geometry": { "type": "MultiLineString", "coordinates": [ [ [ -89.18190134, 13.64966273, 772.91 ], [ -89.18178398, 13.64963034, 772.53 ], [ -89.18165788, 13.64962902, 772.11 ], [ -89.18155356, 13.64961874, 770.35 ], [ -89.18146211, 13.6496381, 769.7 ], [ -89.18136749, 13.64967257, 768.23 ], [ -89.18133165, 13.64976649, 767.63 ], [ -89.18132151, 13.64987363, 767.02 ], [ -89.18131574, 13.6499699, 764.47 ], [ -89.18130294, 13.65009438, 761.31 ], [ -89.18129092, 13.65019354, 760.45 ], [ -89.18128049, 13.65030989, 760.97 ], [ -89.18127204, 13.65041033, 760.7 ], [ -89.18125754, 13.65050895, 763.44 ], [ -89.18123186, 13.65061143, 765.14 ] ] ] } },
{ "type": "Feature", "properties": { "fid": 29, "name": "Pavimento,  calle principal carmen 1", "src": "Registrado con Geo Tracker para Android de Ilya Bogdanovich", "link1_href": "https://play.google.com/store/apps/details?id=com.ilyabogdanovich.geotracker", "geotracker_meta": "        <geotracker:length>54.84</geotracker:length>        <geotracker:duration>35039</geotracker:duration>        <geotracker:creationtime>2026-06-15T20:18:43Z</geotracker:creationtime>        <geotracker:activity>0</geotracker:activity>      ", "layer": "Pavimento,__calle_principal_carmen_1 — tracks", "path": "C:\\Users\\AMSSS-INNOVACION\\OneDrive\\Imágenes\\Escritorio\\sss\\Levantamiento de calles SSS\\Levantamientos San Marcos-20260616T165238Z-3-001\\Levantamientos San Marcos\\15-06-2026\\Pavimento,__calle_principal_carmen_1.gpx|layername=tracks", "Estado": "Pavimento", "img": null, "img2": null }, "geometry": { "type": "MultiLineString", "coordinates": [ [ [ -89.17324066, 13.65219729, 818.4 ], [ -89.17319664, 13.65228813, 816.88 ], [ -89.17313263, 13.65235927, 813.55 ], [ -89.17306948, 13.65244084, 813.24 ], [ -89.17302309, 13.65252062, 814.44 ], [ -89.17297963, 13.65261803, 810.42 ] ] ] } },
{ "type": "Feature", "properties": { "fid": 30, "name": "Pavimento,  calle principal col bella vista ", "src": "Registrado con Geo Tracker para Android de Ilya Bogdanovich", "link1_href": "https://play.google.com/store/apps/details?id=com.ilyabogdanovich.geotracker", "geotracker_meta": "        <geotracker:length>739.46</geotracker:length>        <geotracker:duration>377648</geotracker:duration>        <geotracker:creationtime>2026-06-15T16:26:39Z</geotracker:creationtime>        <geotracker:activity>0</geotracker:activity>      ", "layer": "Pavimento,__calle_principal_col_bella_vista — tracks", "path": "C:\\Users\\AMSSS-INNOVACION\\OneDrive\\Imágenes\\Escritorio\\sss\\Levantamiento de calles SSS\\Levantamientos San Marcos-20260616T165238Z-3-001\\Levantamientos San Marcos\\15-06-2026\\Pavimento,__calle_principal_col_bella_vista.gpx|layername=tracks", "Estado": "Pavimento", "img": null, "img2": null }, "geometry": { "type": "MultiLineString", "coordinates": [ [ [ -89.177389023949203, 13.658821349278043, 837.31 ], [ -89.177324993251247, 13.658807120234052, 839.75 ], [ -89.177249105016628, 13.658778662146068, 839.99 ], [ -89.17713671, 13.65875676, 841.94 ], [ -89.177033, 13.65872494, 841.9 ], [ -89.17692834, 13.65869118, 842.36 ], [ -89.17684754, 13.65860947, 841.64 ], [ -89.17678204, 13.65851299, 840.56 ], [ -89.17667171, 13.6584401, 839.51 ], [ -89.17657675, 13.65843598, 840.29 ], [ -89.17647983, 13.65842408, 839.3 ], [ -89.17640916, 13.65836116, 840.35 ], [ -89.17634043, 13.65829296, 841.54 ], [ -89.17624829, 13.6582188, 840.78 ], [ -89.17614223, 13.65815173, 840.87 ], [ -89.17605076, 13.65809101, 841.2 ], [ -89.17594971, 13.65805488, 840.83 ], [ -89.17584105, 13.65802877, 840.1 ], [ -89.17574081, 13.65801972, 840.52 ], [ -89.17564668, 13.65800756, 839.91 ], [ -89.17555714, 13.6579566, 842.54 ], [ -89.1754571, 13.65788875, 842.84 ], [ -89.17537018, 13.65784895, 841.66 ], [ -89.17526715, 13.65781309, 840.0 ], [ -89.17516869, 13.65778898, 839.46 ], [ -89.17506941, 13.65777869, 836.96 ], [ -89.17497493, 13.65777265, 836.7 ], [ -89.17488185, 13.65779846, 835.07 ], [ -89.17481163, 13.65786907, 833.32 ], [ -89.17474987, 13.65794256, 833.07 ], [ -89.1746804, 13.65801053, 831.28 ], [ -89.17462369, 13.65808642, 829.86 ], [ -89.17456151, 13.65816783, 828.63 ], [ -89.17450559, 13.6582534, 827.45 ], [ -89.17444947, 13.65833265, 826.61 ], [ -89.17439017, 13.65841637, 823.42 ], [ -89.17434064, 13.65850083, 820.66 ], [ -89.1742542, 13.65844839, 815.99 ], [ -89.17424422, 13.65834833, 813.68 ], [ -89.1742448, 13.6582413, 811.62 ], [ -89.1742515, 13.65813881, 810.44 ], [ -89.17425828, 13.65802812, 809.44 ], [ -89.17425823, 13.65792541, 808.86 ], [ -89.1742572, 13.657824, 808.08 ], [ -89.17426218, 13.65772299, 805.86 ], [ -89.17423498, 13.65761375, 804.49 ], [ -89.17420376, 13.65749171, 803.78 ], [ -89.17417254, 13.65739389, 803.35 ], [ -89.17415201, 13.65728084, 800.38 ], [ -89.17414278, 13.65717104, 799.04 ], [ -89.17417998, 13.65707763, 799.44 ], [ -89.17427086, 13.65698071, 799.13 ], [ -89.17433532, 13.65691041, 798.11 ], [ -89.17441665, 13.65686436, 794.69 ], [ -89.17450697, 13.65682553, 794.45 ], [ -89.17460666, 13.65678337, 792.22 ], [ -89.1747056, 13.6567803, 788.63 ], [ -89.1748041, 13.65679268, 787.51 ], [ -89.17490449, 13.65677025, 785.45 ], [ -89.17500161, 13.65670836, 783.42 ], [ -89.17504478, 13.65660909, 778.94 ], [ -89.17505746, 13.65648061, 777.15 ], [ -89.17509035, 13.65632125, 774.74 ], [ -89.17512376, 13.65616444, 774.46 ] ] ] } },
{ "type": "Feature", "properties": { "fid": 31, "name": "Pavimento,  calle principal col el naranjalito", "src": "Registrado con Geo Tracker para Android de Ilya Bogdanovich", "link1_href": "https://play.google.com/store/apps/details?id=com.ilyabogdanovich.geotracker", "geotracker_meta": "        <geotracker:length>271.11</geotracker:length>        <geotracker:duration>319326</geotracker:duration>        <geotracker:creationtime>2026-06-15T16:57:37Z</geotracker:creationtime>        <geotracker:activity>0</geotracker:activity>      ", "layer": "Pavimento,__calle_principal_col_el_naranjalito — tracks", "path": "C:\\Users\\AMSSS-INNOVACION\\OneDrive\\Imágenes\\Escritorio\\sss\\Levantamiento de calles SSS\\Levantamientos San Marcos-20260616T165238Z-3-001\\Levantamientos San Marcos\\15-06-2026\\Pavimento,__calle_principal_col_el_naranjalito.gpx|layername=tracks", "Estado": "Pavimento", "img": null, "img2": null }, "geometry": { "type": "MultiLineString", "coordinates": [ [ [ -89.16455171, 13.65804418, 824.62 ], [ -89.16450602, 13.65812812, 813.54 ], [ -89.16441704, 13.65815653, 823.76 ], [ -89.16434742, 13.65822263, 823.24 ], [ -89.16426299, 13.65828069, 819.91 ], [ -89.1641925, 13.65834005, 817.13 ], [ -89.16410886, 13.65840157, 814.94 ], [ -89.16402474, 13.65845779, 814.4 ], [ -89.16393698, 13.65852019, 814.84 ], [ -89.16384256, 13.65858958, 815.84 ], [ -89.16374493, 13.65865491, 817.28 ], [ -89.16367005, 13.65871381, 818.67 ], [ -89.16359304, 13.65877788, 819.64 ], [ -89.16353787, 13.65886448, 820.97 ], [ -89.16356846, 13.65895352, 822.22 ], [ -89.16362431, 13.65905721, 824.14 ], [ -89.16368352, 13.65913295, 824.33 ], [ -89.16373399, 13.65922317, 826.67 ], [ -89.16378439, 13.65930207, 827.21 ], [ -89.16385993, 13.65939083, 827.04 ], [ -89.16391841, 13.65948016, 826.49 ], [ -89.16396548, 13.65957927, 827.27 ], [ -89.16400522, 13.65966467, 827.51 ], [ -89.1640707, 13.65975729, 827.16 ], [ -89.16412819, 13.65984405, 826.74 ] ] ] } },
{ "type": "Feature", "properties": { "fid": 32, "name": "Pavimento,  calle principal col santa fe", "src": "Registrado con Geo Tracker para Android de Ilya Bogdanovich", "link1_href": "https://play.google.com/store/apps/details?id=com.ilyabogdanovich.geotracker", "geotracker_meta": "        <geotracker:length>125.39</geotracker:length>        <geotracker:duration>78077</geotracker:duration>        <geotracker:creationtime>2026-06-15T16:21:08Z</geotracker:creationtime>        <geotracker:activity>0</geotracker:activity>      ", "layer": "Pavimento,__calle_principal_col_santa_fe — tracks", "path": "C:\\Users\\AMSSS-INNOVACION\\OneDrive\\Imágenes\\Escritorio\\sss\\Levantamiento de calles SSS\\Levantamientos San Marcos-20260616T165238Z-3-001\\Levantamientos San Marcos\\15-06-2026\\Pavimento,__calle_principal_col_santa_fe.gpx|layername=tracks", "Estado": "Pavimento", "img": null, "img2": null }, "geometry": { "type": "MultiLineString", "coordinates": [ [ [ -89.17601451, 13.66138881, 918.27 ], [ -89.17603868, 13.66129354, 914.0 ], [ -89.17603973, 13.66118921, 912.33 ], [ -89.17606845, 13.66109749, 908.32 ], [ -89.17606445, 13.66098734, 908.52 ], [ -89.17605149, 13.66089047, 907.62 ], [ -89.17602766, 13.6607884, 905.48 ], [ -89.17599183, 13.66068816, 904.8 ], [ -89.17596332, 13.66058277, 901.46 ], [ -89.17588475, 13.66050892, 897.7 ], [ -89.17586343, 13.66040586, 894.26 ], [ -89.17588558, 13.66031289, 893.52 ] ] ] } },
{ "type": "Feature", "properties": { "fid": 33, "name": "Pavimento,  calle principal colonia san fe", "src": "Registrado con Geo Tracker para Android de Ilya Bogdanovich", "link1_href": "https://play.google.com/store/apps/details?id=com.ilyabogdanovich.geotracker", "geotracker_meta": "        <geotracker:length>128.65</geotracker:length>        <geotracker:duration>61056</geotracker:duration>        <geotracker:creationtime>2026-06-15T16:24:09Z</geotracker:creationtime>        <geotracker:activity>0</geotracker:activity>      ", "layer": "Pavimento,__calle_principal_colonia_san_fe — tracks", "path": "C:\\Users\\AMSSS-INNOVACION\\OneDrive\\Imágenes\\Escritorio\\sss\\Levantamiento de calles SSS\\Levantamientos San Marcos-20260616T165238Z-3-001\\Levantamientos San Marcos\\15-06-2026\\Pavimento,__calle_principal_colonia_san_fe.gpx|layername=tracks", "Estado": "Pavimento", "img": null, "img2": null }, "geometry": { "type": "MultiLineString", "coordinates": [ [ [ -89.17575438, 13.65968694, 873.03 ], [ -89.1757608, 13.65958889, 878.09 ], [ -89.17575574, 13.65947556, 878.71 ], [ -89.17573926, 13.65938526, 877.0 ], [ -89.17570667, 13.65929416, 877.8 ], [ -89.17565081, 13.65920051, 877.74 ], [ -89.17558003, 13.65908598, 878.36 ], [ -89.17552823, 13.65897295, 877.01 ], [ -89.17551092, 13.65887104, 876.16 ], [ -89.17555116, 13.6587823, 874.89 ], [ -89.17561532, 13.65870719, 872.43 ], [ -89.17567514, 13.65862785, 868.47 ] ] ] } },
{ "type": "Feature", "properties": { "fid": 34, "name": "Pavimento,  calle sierra nevada los alpes ", "src": "Registrado con Geo Tracker para Android de Ilya Bogdanovich", "link1_href": "https://play.google.com/store/apps/details?id=com.ilyabogdanovich.geotracker", "geotracker_meta": "        <geotracker:length>218.4</geotracker:length>        <geotracker:duration>155491</geotracker:duration>        <geotracker:creationtime>2026-06-15T16:43:03Z</geotracker:creationtime>        <geotracker:activity>0</geotracker:activity>      ", "layer": "Pavimento,__calle_sierra_nevada_los_alpes — tracks", "path": "C:\\Users\\AMSSS-INNOVACION\\OneDrive\\Imágenes\\Escritorio\\sss\\Levantamiento de calles SSS\\Levantamientos San Marcos-20260616T165238Z-3-001\\Levantamientos San Marcos\\15-06-2026\\Pavimento,__calle_sierra_nevada_los_alpes.gpx|layername=tracks", "Estado": "Pavimento", "img": null, "img2": null }, "geometry": { "type": "MultiLineString", "coordinates": [ [ [ -89.171641858792981, 13.657266261491904, 811.56 ], [ -89.17151735465805, 13.657259344595518, 811.63 ], [ -89.171411624956164, 13.657250451443023, 812.38 ], [ -89.17130221, 13.6572374, 813.64 ], [ -89.17119535, 13.65722426, 814.77 ], [ -89.17109237, 13.65720319, 816.28 ], [ -89.17099022, 13.65718396, 818.89 ], [ -89.17089468, 13.6571644, 820.79 ], [ -89.17078172, 13.65714624, 823.24 ], [ -89.17066288, 13.65714248, 826.94 ], [ -89.17055157, 13.65713459, 829.74 ], [ -89.17044841, 13.65713302, 829.79 ], [ -89.17035231, 13.65715536, 829.55 ], [ -89.170249586363497, 13.657170413070569, 830.72 ], [ -89.170142374469535, 13.657194128143889, 828.27 ], [ -89.17004158540793, 13.657204009424438, 829.67 ], [ -89.16991938, 13.65722536, 826.82 ], [ -89.16982024472361, 13.657232665138034, 826.29 ], [ -89.169728348814502, 13.657226736369704, 825.09 ], [ -89.169640405417596, 13.657253415827189, 823.08 ] ] ] } },
{ "type": "Feature", "properties": { "fid": 35, "name": "Pavimento,  colonia abrego, avenida los vidales", "src": "Registrado con Geo Tracker para Android de Ilya Bogdanovich", "link1_href": "https://play.google.com/store/apps/details?id=com.ilyabogdanovich.geotracker", "geotracker_meta": "        <geotracker:length>132.49</geotracker:length>        <geotracker:duration>140811</geotracker:duration>        <geotracker:creationtime>2026-06-15T20:14:36Z</geotracker:creationtime>        <geotracker:activity>0</geotracker:activity>      ", "layer": "Pavimento,__colonia_abrego,_avenida_los_vidales — tracks", "path": "C:\\Users\\AMSSS-INNOVACION\\OneDrive\\Imágenes\\Escritorio\\sss\\Levantamiento de calles SSS\\Levantamientos San Marcos-20260616T165238Z-3-001\\Levantamientos San Marcos\\15-06-2026\\Pavimento,__colonia_abrego,_avenida_los_vidales.gpx|layername=tracks", "Estado": "Pavimento", "img": null, "img2": null }, "geometry": { "type": "MultiLineString", "coordinates": [ [ [ -89.17192113, 13.65256093, 810.19 ], [ -89.17194569, 13.65265643, 806.04 ], [ -89.17194211, 13.65274744, 808.14 ], [ -89.17194437, 13.65284799, 808.14 ], [ -89.17194401, 13.65294659, 809.51 ], [ -89.17195915, 13.65304253, 809.17 ], [ -89.17205528, 13.65305354, 808.62 ], [ -89.17215678, 13.65306948, 802.2 ], [ -89.1722634, 13.6530881, 802.62 ], [ -89.17244793, 13.65318105, 804.09 ], [ -89.17256636, 13.65317802, 802.57 ], [ -89.17265924, 13.65319138, 801.18 ] ] ] } },
{ "type": "Feature", "properties": { "fid": 36, "name": "Pavimento, calle colonia san ingnacio 2 oriente ", "src": "Registrado con Geo Tracker para Android de Ilya Bogdanovich", "link1_href": "https://play.google.com/store/apps/details?id=com.ilyabogdanovich.geotracker", "geotracker_meta": "        <geotracker:length>206.88</geotracker:length>        <geotracker:duration>199571</geotracker:duration>        <geotracker:creationtime>2026-06-15T20:37:55Z</geotracker:creationtime>        <geotracker:activity>0</geotracker:activity>      ", "layer": "Pavimento,_calle_colonia_san_ingnacio_2_oriente — tracks", "path": "C:\\Users\\AMSSS-INNOVACION\\OneDrive\\Imágenes\\Escritorio\\sss\\Levantamiento de calles SSS\\Levantamientos San Marcos-20260616T165238Z-3-001\\Levantamientos San Marcos\\15-06-2026\\Pavimento,_calle_colonia_san_ingnacio_2_oriente.gpx|layername=tracks", "Estado": "Pavimento", "img": null, "img2": null }, "geometry": { "type": "MultiLineString", "coordinates": [ [ [ -89.17702287, 13.65735961, 816.78 ], [ -89.17694185, 13.65730767, 811.81 ], [ -89.17687015, 13.65724816, 809.08 ], [ -89.17677985, 13.65720184, 807.19 ], [ -89.17669394, 13.65715389, 806.51 ], [ -89.17660189, 13.65713191, 799.59 ], [ -89.1766468, 13.65703662, 799.41 ], [ -89.17662131, 13.65694459, 799.86 ], [ -89.17659673, 13.65684936, 795.4 ], [ -89.17658505, 13.65675681, 792.28 ], [ -89.17657988, 13.65665755, 789.67 ], [ -89.17655103, 13.65657046, 784.79 ], [ -89.17656098, 13.65647647, 782.73 ], [ -89.17657408, 13.65637774, 779.68 ], [ -89.17657862, 13.65628426, 778.46 ], [ -89.17657745, 13.65619091, 777.34 ], [ -89.17667127, 13.65614772, 776.75 ], [ -89.17679011, 13.65613599, 775.33 ], [ -89.17689017, 13.65613981, 774.34 ], [ -89.17700701, 13.65614217, 773.42 ] ] ] } },
{ "type": "Feature", "properties": { "fid": 37, "name": "Pavimento, calle principal carmen 1", "src": "Registrado con Geo Tracker para Android de Ilya Bogdanovich", "link1_href": "https://play.google.com/store/apps/details?id=com.ilyabogdanovich.geotracker", "geotracker_meta": "        <geotracker:length>263.14</geotracker:length>        <geotracker:duration>250675</geotracker:duration>        <geotracker:creationtime>2026-06-15T20:20:12Z</geotracker:creationtime>        <geotracker:activity>0</geotracker:activity>      ", "layer": "Pavimento,_calle_principal_carmen_1 — tracks", "path": "C:\\Users\\AMSSS-INNOVACION\\OneDrive\\Imágenes\\Escritorio\\sss\\Levantamiento de calles SSS\\Levantamientos San Marcos-20260616T165238Z-3-001\\Levantamientos San Marcos\\15-06-2026\\Pavimento,_calle_principal_carmen_1.gpx|layername=tracks", "Estado": "Pavimento", "img": null, "img2": null }, "geometry": { "type": "MultiLineString", "coordinates": [ [ [ -89.17293776, 13.65274081, 805.78 ], [ -89.1728848, 13.65282768, 805.65 ], [ -89.17285524, 13.65293282, 802.66 ], [ -89.17281031, 13.65303491, 801.78 ], [ -89.17276623, 13.65312986, 800.79 ], [ -89.17274308, 13.65323368, 801.24 ], [ -89.17273528, 13.65334644, 801.48 ], [ -89.17270357, 13.65344934, 799.22 ], [ -89.17273164, 13.65355754, 797.22 ], [ -89.17278584, 13.65364535, 796.49 ], [ -89.17283988, 13.65374144, 795.89 ], [ -89.17288829, 13.65382501, 793.93 ], [ -89.17295076, 13.65389733, 792.6 ], [ -89.17301076, 13.65397696, 792.0 ], [ -89.17308554, 13.65404689, 791.88 ], [ -89.17316168, 13.65410183, 791.75 ], [ -89.17324843, 13.65415101, 791.68 ], [ -89.17334588, 13.65419584, 790.36 ], [ -89.17344044, 13.65423006, 791.01 ], [ -89.17352841, 13.6542645, 789.81 ], [ -89.17361236, 13.65431242, 788.75 ], [ -89.17369676, 13.65439403, 786.75 ], [ -89.17377039, 13.65446149, 786.44 ], [ -89.17382078, 13.65456478, 786.07 ] ] ] } },
{ "type": "Feature", "properties": { "fid": 38, "name": "Pavimento, Final calle David posada, las Mercedes ", "src": "Registrado con Geo Tracker para Android de Ilya Bogdanovich", "link1_href": "https://play.google.com/store/apps/details?id=com.ilyabogdanovich.geotracker", "geotracker_meta": "        <geotracker:length>118.25</geotracker:length>        <geotracker:duration>146436</geotracker:duration>        <geotracker:creationtime>2026-06-15T21:00:13Z</geotracker:creationtime>        <geotracker:activity>0</geotracker:activity>      ", "layer": "Pavimento,_Final_calle_David_posada,_las_Mercedes — tracks", "path": "C:\\Users\\AMSSS-INNOVACION\\OneDrive\\Imágenes\\Escritorio\\sss\\Levantamiento de calles SSS\\Levantamientos San Marcos-20260616T165238Z-3-001\\Levantamientos San Marcos\\15-06-2026\\Pavimento,_Final_calle_David_posada,_las_Mercedes.gpx|layername=tracks", "Estado": "Pavimento", "img": null, "img2": null }, "geometry": { "type": "MultiLineString", "coordinates": [ [ [ -89.1777871, 13.65411044, 770.8 ], [ -89.17781062, 13.6540207, 762.23 ], [ -89.17786093, 13.65393192, 761.94 ], [ -89.17791306, 13.65385588, 760.9 ], [ -89.17798093, 13.65378507, 762.75 ], [ -89.17807711, 13.6537514, 761.31 ], [ -89.17818053, 13.65374183, 760.63 ], [ -89.17827884, 13.6537081, 757.27 ], [ -89.17831836, 13.6537963, 756.47 ], [ -89.17832254, 13.65389268, 758.37 ], [ -89.17833861, 13.65399021, 759.03 ], [ -89.17840005, 13.6540588, 759.2 ] ] ] } },
{ "type": "Feature", "properties": { "fid": 39, "name": "Pavimento, pasaje lara , colonia jiltepqc  norte ", "src": "Registrado con Geo Tracker para Android de Ilya Bogdanovich", "link1_href": "https://play.google.com/store/apps/details?id=com.ilyabogdanovich.geotracker", "geotracker_meta": "        <geotracker:length>239.63</geotracker:length>        <geotracker:duration>180868</geotracker:duration>        <geotracker:creationtime>2026-06-15T20:06:47Z</geotracker:creationtime>        <geotracker:activity>0</geotracker:activity>      ", "layer": "Pavimento,_pasaje_lara_,_colonia_jiltepqc__norte — tracks", "path": "C:\\Users\\AMSSS-INNOVACION\\OneDrive\\Imágenes\\Escritorio\\sss\\Levantamiento de calles SSS\\Levantamientos San Marcos-20260616T165238Z-3-001\\Levantamientos San Marcos\\15-06-2026\\Pavimento,_pasaje_lara_,_colonia_jiltepqc__norte.gpx|layername=tracks", "Estado": "Pavimento", "img": null, "img2": null }, "geometry": { "type": "MultiLineString", "coordinates": [ [ [ -89.1696553, 13.65209591, 822.33 ], [ -89.16975172, 13.65208515, 820.74 ], [ -89.1698508, 13.65209592, 820.98 ], [ -89.16997032, 13.65211036, 820.3 ], [ -89.17007468, 13.65211651, 818.87 ], [ -89.17017754, 13.65210715, 816.01 ], [ -89.17028113, 13.65210658, 815.15 ], [ -89.17038978, 13.65210791, 813.31 ], [ -89.17052623, 13.65211167, 811.27 ], [ -89.17062239, 13.65211024, 809.97 ], [ -89.1707198, 13.65211165, 810.47 ], [ -89.17083633, 13.6521185, 812.15 ], [ -89.17093968, 13.65211597, 811.96 ], [ -89.17098948, 13.65219298, 810.11 ], [ -89.17103222, 13.65227603, 809.01 ], [ -89.171087, 13.65235395, 810.76 ], [ -89.17116453, 13.65242578, 811.48 ], [ -89.17123801, 13.65250968, 810.55 ], [ -89.17130494, 13.65260083, 806.22 ], [ -89.17137434, 13.65268135, 805.5 ], [ -89.17144525, 13.65275961, 802.15 ], [ -89.17151217, 13.65282312, 802.64 ] ] ] } },
{ "type": "Feature", "properties": { "fid": 40, "name": "Pavimento, senda san marcos", "src": "Registrado con Geo Tracker para Android de Ilya Bogdanovich", "link1_href": "https://play.google.com/store/apps/details?id=com.ilyabogdanovich.geotracker", "geotracker_meta": "        <geotracker:length>101.28</geotracker:length>        <geotracker:duration>57054</geotracker:duration>        <geotracker:creationtime>2026-06-15T20:52:57Z</geotracker:creationtime>        <geotracker:activity>0</geotracker:activity>      ", "layer": "Pavimento,_senda_san_marcos — tracks", "path": "C:\\Users\\AMSSS-INNOVACION\\OneDrive\\Imágenes\\Escritorio\\sss\\Levantamiento de calles SSS\\Levantamientos San Marcos-20260616T165238Z-3-001\\Levantamientos San Marcos\\15-06-2026\\Pavimento,_senda_san_marcos.gpx|layername=tracks", "Estado": "Pavimento", "img": null, "img2": null }, "geometry": { "type": "MultiLineString", "coordinates": [ [ [ -89.17943535, 13.65480522, 757.67 ], [ -89.17953968, 13.65481382, 757.04 ], [ -89.17965425, 13.65482274, 758.43 ], [ -89.17975473, 13.65485609, 755.46 ], [ -89.17987246, 13.65489301, 754.7 ], [ -89.17995813, 13.65492804, 753.06 ], [ -89.18004994, 13.65495988, 752.06 ], [ -89.1801552, 13.65497834, 752.39 ], [ -89.1802438, 13.65500546, 750.78 ], [ -89.18033708, 13.65503042, 749.68 ] ] ] } },
{ "type": "Feature", "properties": { "fid": 41, "name": "Tierra,  pasaje Alfa el tránsito 2", "src": "Registrado con Geo Tracker para Android de Ilya Bogdanovich", "link1_href": "https://play.google.com/store/apps/details?id=com.ilyabogdanovich.geotracker", "geotracker_meta": "        <geotracker:length>74.71</geotracker:length>        <geotracker:duration>62064</geotracker:duration>        <geotracker:creationtime>2026-06-15T16:05:41Z</geotracker:creationtime>        <geotracker:activity>0</geotracker:activity>      ", "layer": "Tierra,__pasaje_Alfa_el_tránsito_2 — tracks", "path": "C:\\Users\\AMSSS-INNOVACION\\OneDrive\\Imágenes\\Escritorio\\sss\\Levantamiento de calles SSS\\Levantamientos San Marcos-20260616T165238Z-3-001\\Levantamientos San Marcos\\15-06-2026\\Tierra,__pasaje_Alfa_el_tránsito_2.gpx|layername=tracks", "Estado": "Tierra", "img": null, "img2": null }, "geometry": { "type": "MultiLineString", "coordinates": [ [ [ -89.1774528, 13.65880896, 835.34 ], [ -89.17753721, 13.65887069, 835.46 ], [ -89.17761787, 13.65892117, 835.12 ], [ -89.17768974, 13.65899854, 836.11 ], [ -89.17774965, 13.659068, 835.35 ], [ -89.1778025, 13.65915219, 834.27 ], [ -89.17785791, 13.65922657, 834.29 ], [ -89.17782667, 13.65931372, 835.75 ] ] ] } },
{ "type": "Feature", "properties": { "fid": 42, "name": "Tierra, calle principal de lot el guaje ", "src": "Registrado con Geo Tracker para Android de Ilya Bogdanovich", "link1_href": "https://play.google.com/store/apps/details?id=com.ilyabogdanovich.geotracker", "geotracker_meta": "        <geotracker:length>85.35</geotracker:length>        <geotracker:duration>74050</geotracker:duration>        <geotracker:creationtime>2026-06-15T17:08:53Z</geotracker:creationtime>        <geotracker:activity>0</geotracker:activity>      ", "layer": "Tierra,_calle_principal_de_lot_el_guaje — tracks", "path": "C:\\Users\\AMSSS-INNOVACION\\OneDrive\\Imágenes\\Escritorio\\sss\\Levantamiento de calles SSS\\Levantamientos San Marcos-20260616T165238Z-3-001\\Levantamientos San Marcos\\15-06-2026\\Tierra,_calle_principal_de_lot_el_guaje.gpx|layername=tracks", "Estado": null, "img": null, "img2": null }, "geometry": { "type": "MultiLineString", "coordinates": [ [ [ -89.16082017, 13.65773879, 806.83 ], [ -89.16090417, 13.65778875, 800.93 ], [ -89.16099205, 13.65784652, 802.65 ], [ -89.16105926, 13.65791085, 802.64 ], [ -89.16114431, 13.65796194, 803.81 ], [ -89.16122295, 13.65801227, 805.54 ], [ -89.16128804, 13.65807713, 805.48 ], [ -89.161366, 13.65813537, 805.02 ], [ -89.16143872, 13.65821054, 807.73 ] ] ] } }
]
}
