{
"type": "FeatureCollection",
"name": "CENTROS DE VOTACION",
"crs": { "type": "name", "properties": { "name": "urn:ogc:def:crs:OGC:1.3:CRS84" } },
"features": [
{ "type": "Feature", "properties": { "qc_id": 0, "fid": 1.0, "id": "1", "departamen": "SAN SALVADOR", "distrito": "ROSARIO DE MORA", "centro de": "CO.E. MANUEL JOSE ARCE", "direccion": "AVENIDA ALEJANDRO MORA BARRIO EL CENTRO ROSARIO DE MORA SAN SALVADOR", "latitud": "13,5767041", "longitud": "-89,2042935", "jrv": 11, "poblacion": "4804", "n ideas": 632 }, "geometry": { "type": "MultiPoint", "coordinates": [ [ -89.2042935, 13.5767041 ] ] } },
{ "type": "Feature", "properties": { "qc_id": 1, "fid": 2.0, "id": "1", "departamen": "SAN SALVADOR", "distrito": "ROSARIO DE MORA", "centro de": "C.E CANTON LAS BARROSAS", "direccion": "CALLE A CANTON LAS BARROSAS CASERIO LAS BARROSAS, ROSARIO DE MORA", "latitud": "13,5435841", "longitud": "-89,1957366", "jrv": 2, "poblacion": "764", "n ideas": 155 }, "geometry": { "type": "MultiPoint", "coordinates": [ [ -89.1957366, 13.5435841 ] ] } },
{ "type": "Feature", "properties": { "qc_id": 2, "fid": 3.0, "id": "1", "departamen": "SAN SALVADOR", "distrito": "ROSARIO DE MORA", "centro de": "C.E CANTON CERCO DE PIEDRA", "direccion": "CALLE ANTIGUA  A  ROSARIO DE MORA CANTON CERCO DE PIEDRA", "latitud": "13,4857390", "longitud": "-89,2065506", "jrv": 2, "poblacion": "420", "n ideas": 85 }, "geometry": { "type": "MultiPoint", "coordinates": [ [ -89.2065506, 13.485739 ] ] } },
{ "type": "Feature", "properties": { "qc_id": 3, "fid": 4.0, "id": "1", "departamen": "SAN SALVADOR", "distrito": "ROSARIO DE MORA", "centro de": "C.E REPUBLICA DE AUSTRIA", "direccion": "CANTON PALO GRANDE, CASERIO EL AMATE, COOPERATIVA LOS ANHNELOS, ROSARIO DE MORA SAN SALVADOR", "latitud": "13,5490927", "longitud": "-89,2156332", "jrv": 2, "poblacion": "588", "n ideas": 75 }, "geometry": { "type": "MultiPoint", "coordinates": [ [ -89.2156332, 13.5490927 ] ] } },
{ "type": "Feature", "properties": { "qc_id": 4, "fid": 5.0, "id": "2", "departamen": "SAN SALVADOR", "distrito": "SANTO TOMAS", "centro de": "C.E GENERAL MANUEL BELGRANO", "direccion": "CALLE ALBERTO MASFERRER COLONIA 3 DE MAYO", "latitud": "13,6426164", "longitud": "-89,1338474", "jrv": 20, "poblacion": "5,248", "n ideas": 1463 }, "geometry": { "type": "MultiPoint", "coordinates": [ [ -89.1338474, 13.6426164 ] ] } },
{ "type": "Feature", "properties": { "qc_id": 5, "fid": 6.0, "id": "2", "departamen": "SAN SALVADOR", "distrito": "SANTO TOMAS", "centro de": "C.E DOCTOR ANTONIO DIAZ", "direccion": "KILOMETRO NUEVE CARRETERA ANTIGUA A ZACATECOLUCA COLONIA MORAN", "latitud": "13,6518787", "longitud": "-89,1526808", "jrv": 9, "poblacion": "1,861", "n ideas": 550 }, "geometry": { "type": "MultiPoint", "coordinates": [ [ -89.1526808, 13.6518787 ] ] } },
{ "type": "Feature", "properties": { "qc_id": 7, "fid": 8.0, "id": "2", "departamen": "SAN SALVADOR", "distrito": "SANTO TOMAS", "centro de": "C.E CANTON LAS CASITAS", "direccion": "KILOMETRO 9 1/2 CARRETERA ANTIGUA  A ZACATECOLUCA CASERIO LAS CASITAS", "latitud": "13,6374939", "longitud": "-89,1568623", "jrv": 5, "poblacion": "1948", "n ideas": 343 }, "geometry": { "type": "MultiPoint", "coordinates": [ [ -89.1568623, 13.6374939 ] ] } },
{ "type": "Feature", "properties": { "qc_id": 8, "fid": 9.0, "id": "2", "departamen": "SAN SALVADOR", "distrito": "SANTO TOMAS", "centro de": "C.E  CANTON EL GUAJE", "direccion": "CARRETERA ANTIGUA A COMALAPA KILOMETRO NUEVE Y MEDIO CANTON EL GUAJE", "latitud": "13,6202925", "longitud": "-89,1566230", "jrv": 2, "poblacion": "608", "n ideas": 99 }, "geometry": { "type": "MultiPoint", "coordinates": [ [ -89.156623, 13.6202925 ] ] } },
{ "type": "Feature", "properties": { "qc_id": 9, "fid": 10.0, "id": "3", "departamen": "SAN SALVADOR", "distrito": "SANTIAGO TEXACUANGOS", "centro de": "C.E CAMILO CAMPOS", "direccion": "CALLE A CEMENTERIO BARRIO EL CALVARIO CONTIGUO A LA ALCALDIA", "latitud": "13,6422136", "longitud": "-89,1178500", "jrv": 15, "poblacion": "5995", "n ideas": 1331 }, "geometry": { "type": "MultiPoint", "coordinates": [ [ -89.11785, 13.6422136 ] ] } },
{ "type": "Feature", "properties": { "qc_id": 10, "fid": 11.0, "id": "3", "departamen": "SAN SALVADOR", "distrito": "SANTIAGO TEXACUANGOS", "centro de": "C.E CANTON JOYA GRANDE", "direccion": "CALLE PRINCIPAL CANTON JOYA GRANDE SANTIAGO TEXACUANGOS", "latitud": "13,6609450", "longitud": "-89,1000325", "jrv": 2, "poblacion": "736", "n ideas": 184 }, "geometry": { "type": "MultiPoint", "coordinates": [ [ -89.1000325, 13.660945 ] ] } },
{ "type": "Feature", "properties": { "qc_id": 11, "fid": 12.0, "id": "3", "departamen": "SAN SALVADOR", "distrito": "SANTIAGO TEXACUANGOS", "centro de": "C.E CANTON LA CUCHILLA", "direccion": "CALLE PRINCIPAL LA CUCHILLA CANTON LA CUCHILLA", "latitud": "13,6346230", "longitud": "-89,1060469", "jrv": 5, "poblacion": "1722", "n ideas": 378 }, "geometry": { "type": "MultiPoint", "coordinates": [ [ -89.1060469, 13.634623 ] ] } },
{ "type": "Feature", "properties": { "qc_id": 12, "fid": 13.0, "id": "3", "departamen": "SAN SALVADOR", "distrito": "SANTIAGO TEXACUANGOS", "centro de": "C.E  CASERIO EL SAUCE, CANTON EL MORRO", "direccion": "CALLE A FINCA EL SAUCE CANTON EL MORRO COLONIA EL SAUCE SANTIAGO TEXACUANGOS SAN SALVADOR", "latitud": "13,6162613", "longitud": "-89,1155360", "jrv": 4, "poblacion": "1291", "n ideas": 264 }, "geometry": { "type": "MultiPoint", "coordinates": [ [ -89.115536, 13.6162613 ] ] } },
{ "type": "Feature", "properties": { "qc_id": 13, "fid": 14.0, "id": "4", "departamen": "SAN SALVADOR", "distrito": "PANCHIMALCO", "centro de": "CO.E PROFESOR BERNARDINO VILLAMARIONA", "direccion": "BARRIO SAN ESTEBAN PANCHIMALCO ATRAS DE LA ALCALDIA MUNICIPAL", "latitud": "13,6126631", "longitud": "-89,1805834", "jrv": 18, "poblacion": "7660", "n ideas": 979 }, "geometry": { "type": "MultiPoint", "coordinates": [ [ -89.1805834, 13.6126631 ] ] } },
{ "type": "Feature", "properties": { "qc_id": 14, "fid": 15.0, "id": "4", "departamen": "SAN SALVADOR", "distrito": "PANCHIMALCO", "centro de": "CO.E GOLDTREE LIEBES", "direccion": "COSTADO NORTE PARQUE BALBOA CONTIGUO CANCHA DE FUTBOL PLANES DE RENDEROS", "latitud": "13,6413400", "longitud": "-89,1887032", "jrv": 13, "poblacion": "5264", "n ideas": 995 }, "geometry": { "type": "MultiPoint", "coordinates": [ [ -89.1887032, 13.64134 ] ] } },
{ "type": "Feature", "properties": { "qc_id": 15, "fid": 16.0, "id": "4", "departamen": "SAN SALVADOR", "distrito": "PANCHIMALCO", "centro de": "C.E  CANTON LOS PAJALES", "direccion": "CALLE PRINCIPAL CANTON LOS PAJALES PANCHIMALCO SAN SALVADOR", "latitud": "13,5870130", "longitud": "-89,1567281", "jrv": 3, "poblacion": "941", "n ideas": 124 }, "geometry": { "type": "MultiPoint", "coordinates": [ [ -89.1567281, 13.587013 ] ] } },
{ "type": "Feature", "properties": { "qc_id": 16, "fid": 17.0, "id": "4", "departamen": "SAN SALVADOR", "distrito": "PANCHIMALCO", "centro de": "CO.E CANTON SAN ISIDRO", "direccion": "CALLE A CANTON LOS TRONCONES Y CALLE A CANTON AZACUALPA CANTON SAN ISIDRO PANCHIMALCO", "latitud": "13,5739092", "longitud": "-89,1734572", "jrv": 8, "poblacion": "2699", "n ideas": 240 }, "geometry": { "type": "MultiPoint", "coordinates": [ [ -89.1734572, 13.5739092 ] ] } },
{ "type": "Feature", "properties": { "qc_id": 17, "fid": 18.0, "id": "4", "departamen": "SAN SALVADOR", "distrito": "PANCHIMALCO", "centro de": "C.E CASERIO LAS MORENAS CANTONAMAYON", "direccion": "FINAL CALLE LAS MORENAS CANTON AMAYON PANCHIMALCO", "latitud": "13,5067651", "longitud": "-89,1840368", "jrv": 1, "poblacion": "295", "n ideas": 45 }, "geometry": { "type": "MultiPoint", "coordinates": [ [ -89.1840368, 13.5067651 ] ] } },
{ "type": "Feature", "properties": { "qc_id": 18, "fid": 19.0, "id": "4", "departamen": "SAN SALVADOR", "distrito": "PANCHIMALCO", "centro de": "ERMITA CANTON MIL CUMBRES", "direccion": "Carretera a Puerta del Diablo y desvio a Canton Quezalapa,  Canton Mil Cumbres, Panchimalco", "latitud": "13,6181251", "longitud": "-89,1969729", "jrv": 7, "poblacion": "2871", "n ideas": 342 }, "geometry": { "type": "MultiPoint", "coordinates": [ [ -89.1969729, 13.6181251 ] ] } },
{ "type": "Feature", "properties": { "qc_id": 19, "fid": 20.0, "id": "5", "departamen": "SAN SALVADOR", "distrito": "SAN MARCOS", "centro de": "AVENIDA PADRE MARIO ZANCONATO", "direccion": "TRAMO AVENIDA PADRE MARIO ZANCONATO ENTRE LAS CALLES 25 DE ABRIL Y 15 DE SEPTIEMBRE", "latitud": "13,6566734", "longitud": "-89,1813796", "jrv": 14, "poblacion": "4750", "n ideas": 1081 }, "geometry": { "type": "MultiPoint", "coordinates": [ [ -89.1813796, 13.6566734 ] ] } },
{ "type": "Feature", "properties": { "qc_id": 20, "fid": 21.0, "id": "5", "departamen": "SAN SALVADOR", "distrito": "SAN MARCOS", "centro de": "CO.E COLONIA EL MILAGRO", "direccion": "COLONIA EL MILAGRO 4 AVENIDA NORTE CALLE ALFONSO ALBALLERO", "latitud": "13,6634715", "longitud": "-89,1822531", "jrv": 6, "poblacion": "2290", "n ideas": 457 }, "geometry": { "type": "MultiPoint", "coordinates": [ [ -89.1822531, 13.6634715 ] ] } },
{ "type": "Feature", "properties": { "qc_id": 21, "fid": 22.0, "id": "5", "departamen": "SAN SALVADOR", "distrito": "SAN MARCOS", "centro de": "C.E CANTON LOS ANDES", "direccion": "COLONIA LOS ANDES QUINTA CALLE ORIENTE NUMERO UNO", "latitud": "13,6683526", "longitud": "-89,1856362", "jrv": 5, "poblacion": "1565", "n ideas": 407 }, "geometry": { "type": "MultiPoint", "coordinates": [ [ -89.1856362, 13.6683526 ] ] } },
{ "type": "Feature", "properties": { "qc_id": 22, "fid": 23.0, "id": "5", "departamen": "SAN SALVADOR", "distrito": "SAN MARCOS", "centro de": "C.E CANTON GUADALUPE", "direccion": "AV LOS ALPES CALLE SIERRA NEVADA LOTIFICACION  LOS ALPES 1 SAN MARCOS", "latitud": "13,6573469", "longitud": "-89,1713154", "jrv": 11, "poblacion": "3861", "n ideas": 898 }, "geometry": { "type": "MultiPoint", "coordinates": [ [ -89.1713154, 13.6573469 ] ] } },
{ "type": "Feature", "properties": { "qc_id": 23, "fid": 24.0, "id": "5", "departamen": "SAN SALVADOR", "distrito": "SAN MARCOS", "centro de": "C.E DOCTOR EUSEBIO CORDON CEA", "direccion": "COLONIA SANTA MARIA AVENIDA MEXICO FINAL CALLE PRINCIPAL SAN MARCOS", "latitud": "13,6552439", "longitud": "-89,1733351", "jrv": 11, "poblacion": "4095", "n ideas": 940 }, "geometry": { "type": "MultiPoint", "coordinates": [ [ -89.1733351, 13.6552439 ] ] } },
{ "type": "Feature", "properties": { "qc_id": 24, "fid": 25.0, "id": "5", "departamen": "SAN SALVADOR", "distrito": "SAN MARCOS", "centro de": "C.E COMUNIDAD 10 DE OCTUBRE", "direccion": "COLONIA DIEZ DE OCTUBRE 2 SDA 1AUTOPISTA A AEROPUERTO EL SALVADOR", "latitud": "13,6520970", "longitud": "-89,1654730", "jrv": 7, "poblacion": "2302", "n ideas": 491 }, "geometry": { "type": "MultiPoint", "coordinates": [ [ -89.165473, 13.652097 ] ] } },
{ "type": "Feature", "properties": { "qc_id": 25, "fid": 26.0, "id": "5", "departamen": "SAN SALVADOR", "distrito": "SAN MARCOS", "centro de": "I.N PROFESORA BERTHA FIDELIA CAÑAS", "direccion": "COLONIA LOS ANGELES, CALLE ALBERTO MASFERRER, KM. 10 SAN MARCOS, SAN SALVADOR", "latitud": "13,6434231", "longitud": "-89,1864076", "jrv": 3, "poblacion": "699", "n ideas": 190 }, "geometry": { "type": "MultiPoint", "coordinates": [ [ -89.1864076, 13.6434231 ] ] } },
{ "type": "Feature", "properties": { "qc_id": 26, "fid": 27.0, "id": "5", "departamen": "SAN SALVADOR", "distrito": "SAN MARCOS", "centro de": "PARQUE RECREATIVO CUTACUZCAT", "direccion": "AVENIDA COLONIAL AUTOPISTA COMALAPA SAN MARCOS", "latitud": "13,6508647", "longitud": "-89,1837420", "jrv": 10, "poblacion": "3713", "n ideas": 822 }, "geometry": { "type": "MultiPoint", "coordinates": [ [ -89.183742, 13.6508647 ] ] } },
{ "type": "Feature", "properties": { "qc_id": 27, "fid": 28.0, "id": "5", "departamen": "SAN SALVADOR", "distrito": "SAN MARCOS", "centro de": "I.N DE SAN MARCOS", "direccion": "URBANIZACION EL CARMEN AVENIDA COLONIAL PASAJE 4 SAN MARCOS", "latitud": "13,6538125", "longitud": "-89,1835625", "jrv": 9, "poblacion": "3303", "n ideas": 666 }, "geometry": { "type": "MultiPoint", "coordinates": [ [ -89.1835625, 13.6538125 ] ] } },
{ "type": "Feature", "properties": { "qc_id": 28, "fid": 29.0, "id": "5", "departamen": "SAN SALVADOR", "distrito": "SAN MARCOS", "centro de": "C.E IGNACIO PACHECO CASTRO", "direccion": "COLONIA SAN ANTONIO 3 FINAL PASAJE BALBOA CALLE ALFONSO ALBALLERO", "latitud": "13,6616875", "longitud": "-89,1858125", "jrv": 4, "poblacion": "1338", "n ideas": 303 }, "geometry": { "type": "MultiPoint", "coordinates": [ [ -89.1858125, 13.6616875 ] ] } },
{ "type": "Feature", "properties": { "qc_id": 29, "fid": 30.0, "id": "5", "departamen": "SAN SALVADOR", "distrito": "SAN MARCOS", "centro de": "POLIDEPORTIVO JARDINES DE SAN MARCOS", "direccion": "CALLE PRINCIPAL, JARDINES DE SAN MARCOS", "latitud": "13,6629952", "longitud": "-89,1887149", "jrv": 9, "poblacion": "3317", "n ideas": 654 }, "geometry": { "type": "MultiPoint", "coordinates": [ [ -89.1887149, 13.6629952 ] ] } },
{ "type": "Feature", "properties": { "qc_id": 6, "fid": 7.0, "id": "2", "departamen": "SAN SALVADOR", "distrito": "SANTO TOMAS", "centro de": "C.E CANTON CUAPA", "direccion": "CASERIO CUAPA CALLE A SOYAPANGO KM71/2  CANTON CUAPA", "latitud": "13,6639497", "longitud": "-89,1522325", "jrv": 2, "poblacion": "821", "n ideas": 173 }, "geometry": { "type": "MultiPoint", "coordinates": [ [ -89.1522325, 13.6639497 ] ] } }
]
}
