{
"type": "FeatureCollection",
"name": "RUTAS ALTERNAS SSS",
"crs": { "type": "name", "properties": { "name": "urn:ogc:def:crs:OGC:1.3:CRS84" } },
"features": [
{ "type": "Feature", "properties": { "fid": 1, "Nombre": "RUTA 1" }, "geometry": { "type": "LineString", "coordinates": [ [ -89.184289562099622, 13.650292316716317 ], [ -89.184184251954221, 13.650456534092756 ], [ -89.184112520908343, 13.650566013459317 ], [ -89.184067475311139, 13.650748072540877 ], [ -89.183975186819438, 13.651054322986058 ], [ -89.183905395929784, 13.651237452715801 ], [ -89.183817327616211, 13.651437430802234 ], [ -89.183720734059591, 13.651742632191244 ], [ -89.183605816050445, 13.652004708265265 ], [ -89.183468391418927, 13.652379383226558 ], [ -89.18336527917802, 13.652604624435764 ], [ -89.183297674449477, 13.652832995644005 ], [ -89.183276221714308, 13.65291718520265 ], [ -89.183249437338304, 13.653062930654212 ], [ -89.183167930239279, 13.653400211734596 ], [ -89.183079943218047, 13.653706458605019 ], [ -89.182933018133426, 13.653972766847767 ], [ -89.182826689181965, 13.654213792751714 ], [ -89.182760167568588, 13.654452684686539 ], [ -89.182720444623484, 13.65456371809163 ], [ -89.182686071433281, 13.654636343327624 ], [ -89.182635566697115, 13.654718450065607 ], [ -89.182581857838102, 13.654831072088088 ], [ -89.182556099326078, 13.654913160434466 ], [ -89.18255079769375, 13.655013646559325 ], [ -89.182539084187056, 13.655170428511967 ], [ -89.182599486439912, 13.65536398285747 ], [ -89.182618949968415, 13.655488650489939 ], [ -89.182651502818217, 13.655842681346522 ], [ -89.182678619302294, 13.656123590454166 ], [ -89.182677760775505, 13.656403468168978 ], [ -89.182665080045609, 13.656700189373554 ], [ -89.182595330625645, 13.656940132774126 ] ] } },
{ "type": "Feature", "properties": { "fid": 2, "Nombre": "tramo 2" }, "geometry": { "type": "LineString", "coordinates": [ [ -89.179203761872969, 13.64994701826075 ], [ -89.179120012895282, 13.650172243598099 ], [ -89.17907381710053, 13.65026171166857 ], [ -89.179047052451423, 13.650436391328787 ], [ -89.179032130744133, 13.650621584059861 ], [ -89.179043090067637, 13.650884618502939 ], [ -89.179092848642981, 13.651234954771407 ], [ -89.179211407940315, 13.651509484679231 ], [ -89.179277723225397, 13.651701983388143 ], [ -89.179444621976501, 13.65187546964683 ], [ -89.179556592369238, 13.651974291860462 ], [ -89.179704119447521, 13.652140426897995 ], [ -89.179777378889355, 13.652267685876144 ], [ -89.179867853045351, 13.652394932241005 ], [ -89.180005679650847, 13.65253792645861 ], [ -89.180026156675922, 13.652583154762102 ], [ -89.180098400945823, 13.652789327106175 ], [ -89.180143774809579, 13.65303129287935 ], [ -89.18020858141611, 13.653359522307825 ], [ -89.18026471631822, 13.653603584506136 ], [ -89.180437389897421, 13.654289472418153 ], [ -89.180493628623353, 13.654668212178748 ], [ -89.180472334590064, 13.654960730933384 ], [ -89.180410085833145, 13.65516279315487 ], [ -89.180371422657061, 13.6552543602632 ], [ -89.180403808645877, 13.6553953272191 ], [ -89.18044911389552, 13.655546806385169 ], [ -89.180386776993913, 13.655634182186878 ], [ -89.180184571577954, 13.655724817004783 ], [ -89.180003866895035, 13.655792288190366 ], [ -89.179887703453247, 13.655840772988293 ], [ -89.179930806682677, 13.655927019350591 ], [ -89.180001858384827, 13.655979575826299 ], [ -89.180203104258041, 13.656040454266373 ], [ -89.18046727447269, 13.656078138643327 ] ] } }
]
}
